postcode,city,state,state_code
17700,Ayer Lanas,Kelantan,KTN
16020,Bachok,Kelantan,KTN
16030,Bachok,Kelantan,KTN
16050,Bachok,Kelantan,KTN
16060,Bachok,Kelantan,KTN
16070,Bachok,Kelantan,KTN
16090,Bachok,Kelantan,KTN
16300,Bachok,Kelantan,KTN
16310,Bachok,Kelantan,KTN
16320,Bachok,Kelantan,KTN
16350,Bachok,Kelantan,KTN
16370,Bachok,Kelantan,KTN
16390,Bachok,Kelantan,KTN
16700,Cherang Ruku,Kelantan,KTN
18200,Dabong,Kelantan,KTN
18300,Gua Musang,Kelantan,KTN
17600,Jeli,Kelantan,KTN
16500,Kem Desa Pahlawan,Kelantan,KTN
16450,Ketereh,Kelantan,KTN
15000,Kota Bharu,Kelantan,KTN
15050,Kota Bharu,Kelantan,KTN
15100,Kota Bharu,Kelantan,KTN
15150,Kota Bharu,Kelantan,KTN
15159,Kota Bharu,Kelantan,KTN
15160,Kota Bharu,Kelantan,KTN
15200,Kota Bharu,Kelantan,KTN
15300,Kota Bharu,Kelantan,KTN
15350,Kota Bharu,Kelantan,KTN
15400,Kota Bharu,Kelantan,KTN
15500,Kota Bharu,Kelantan,KTN
15502,Kota Bharu,Kelantan,KTN
15503,Kota Bharu,Kelantan,KTN
15504,Kota Bharu,Kelantan,KTN
15505,Kota Bharu,Kelantan,KTN
15506,Kota Bharu,Kelantan,KTN
15508,Kota Bharu,Kelantan,KTN
15512,Kota Bharu,Kelantan,KTN
15514,Kota Bharu,Kelantan,KTN
15516,Kota Bharu,Kelantan,KTN
15517,Kota Bharu,Kelantan,KTN
15518,Kota Bharu,Kelantan,KTN
15519,Kota Bharu,Kelantan,KTN
15520,Kota Bharu,Kelantan,KTN
15524,Kota Bharu,Kelantan,KTN
15529,Kota Bharu,Kelantan,KTN
15532,Kota Bharu,Kelantan,KTN
15534,Kota Bharu,Kelantan,KTN
15536,Kota Bharu,Kelantan,KTN
15538,Kota Bharu,Kelantan,KTN
15540,Kota Bharu,Kelantan,KTN
15546,Kota Bharu,Kelantan,KTN
15548,Kota Bharu,Kelantan,KTN
15550,Kota Bharu,Kelantan,KTN
15551,Kota Bharu,Kelantan,KTN
15556,Kota Bharu,Kelantan,KTN
15558,Kota Bharu,Kelantan,KTN
15560,Kota Bharu,Kelantan,KTN
15564,Kota Bharu,Kelantan,KTN
15570,Kota Bharu,Kelantan,KTN
15572,Kota Bharu,Kelantan,KTN
15576,Kota Bharu,Kelantan,KTN
15578,Kota Bharu,Kelantan,KTN
15582,Kota Bharu,Kelantan,KTN
15586,Kota Bharu,Kelantan,KTN
15590,Kota Bharu,Kelantan,KTN
15592,Kota Bharu,Kelantan,KTN
15594,Kota Bharu,Kelantan,KTN
15596,Kota Bharu,Kelantan,KTN
15600,Kota Bharu,Kelantan,KTN
15604,Kota Bharu,Kelantan,KTN
15606,Kota Bharu,Kelantan,KTN
15608,Kota Bharu,Kelantan,KTN
15609,Kota Bharu,Kelantan,KTN
15610,Kota Bharu,Kelantan,KTN
15612,Kota Bharu,Kelantan,KTN
15614,Kota Bharu,Kelantan,KTN
15616,Kota Bharu,Kelantan,KTN
15620,Kota Bharu,Kelantan,KTN
15622,Kota Bharu,Kelantan,KTN
15623,Kota Bharu,Kelantan,KTN
15624,Kota Bharu,Kelantan,KTN
15626,Kota Bharu,Kelantan,KTN
15628,Kota Bharu,Kelantan,KTN
15630,Kota Bharu,Kelantan,KTN
15632,Kota Bharu,Kelantan,KTN
15634,Kota Bharu,Kelantan,KTN
15644,Kota Bharu,Kelantan,KTN
15646,Kota Bharu,Kelantan,KTN
15648,Kota Bharu,Kelantan,KTN
15658,Kota Bharu,Kelantan,KTN
15660,Kota Bharu,Kelantan,KTN
15661,Kota Bharu,Kelantan,KTN
15662,Kota Bharu,Kelantan,KTN
15664,Kota Bharu,Kelantan,KTN
15670,Kota Bharu,Kelantan,KTN
15672,Kota Bharu,Kelantan,KTN
15673,Kota Bharu,Kelantan,KTN
15674,Kota Bharu,Kelantan,KTN
15676,Kota Bharu,Kelantan,KTN
15680,Kota Bharu,Kelantan,KTN
15690,Kota Bharu,Kelantan,KTN
15700,Kota Bharu,Kelantan,KTN
15710,Kota Bharu,Kelantan,KTN
15720,Kota Bharu,Kelantan,KTN
15730,Kota Bharu,Kelantan,KTN
15740,Kota Bharu,Kelantan,KTN
15988,Kota Bharu,Kelantan,KTN
15990,Kota Bharu,Kelantan,KTN
16010,Kota Bharu,Kelantan,KTN
16100,Kota Bharu,Kelantan,KTN
16109,Kota Bharu,Kelantan,KTN
16150,Kota Bharu,Kelantan,KTN
17610,Kuala Balah,Kelantan,KTN
18000,Kuala Krai,Kelantan,KTN
18020,Kuala Krai,Kelantan,KTN
18050,Kuala Krai,Kelantan,KTN
18500,Machang,Kelantan,KTN
16400,Melor,Kelantan,KTN
17000,Pasir Mas,Kelantan,KTN
17007,Pasir Mas,Kelantan,KTN
17009,Pasir Mas,Kelantan,KTN
17010,Pasir Mas,Kelantan,KTN
17020,Pasir Mas,Kelantan,KTN
17030,Pasir Mas,Kelantan,KTN
17040,Pasir Mas,Kelantan,KTN
17050,Pasir Mas,Kelantan,KTN
17060,Pasir Mas,Kelantan,KTN
17070,Pasir Mas,Kelantan,KTN
16800,Pasir Puteh,Kelantan,KTN
16600,Pulai Chondong,Kelantan,KTN
17200,Rantau Panjang,Kelantan,KTN
16810,Selising,Kelantan,KTN
17500,Tanah Merah,Kelantan,KTN
17507,Tanah Merah,Kelantan,KTN
17509,Tanah Merah,Kelantan,KTN
17510,Tanah Merah,Kelantan,KTN
17520,Tanah Merah,Kelantan,KTN
17599,Tanah Merah,Kelantan,KTN
18400,Temangan,Kelantan,KTN
16080,Tumpat,Kelantan,KTN
16200,Tumpat,Kelantan,KTN
16210,Tumpat,Kelantan,KTN
16040,Wakaf Bharu,Kelantan,KTN
16250,Wakaf Bharu,Kelantan,KTN
16266,Wakaf Bharu,Kelantan,KTN
