postcode,city,state,state_code
89800,Beaufort,Sabah,SBH
89807,Beaufort,Sabah,SBH
89808,Beaufort,Sabah,SBH
89809,Beaufort,Sabah,SBH
90100,Beluran,Sabah,SBH
90107,Beluran,Sabah,SBH
90109,Beluran,Sabah,SBH
88700,Beverly,Sabah,SBH
89260,Beverly,Sabah,SBH
89700,Bongawan,Sabah,SBH
89707,Bongawan,Sabah,SBH
89708,Bongawan,Sabah,SBH
89709,Bongawan,Sabah,SBH
88857,Inanam,Sabah,SBH
89000,Keningau,Sabah,SBH
89007,Keningau,Sabah,SBH
89008,Keningau,Sabah,SBH
89009,Keningau,Sabah,SBH
89150,Kota Belud,Sabah,SBH
89157,Kota Belud,Sabah,SBH
89158,Kota Belud,Sabah,SBH
89159,Kota Belud,Sabah,SBH
88000,Kota Kinabalu,Sabah,SBH
88100,Kota Kinabalu,Sabah,SBH
88110,Kota Kinabalu,Sabah,SBH
88150,Kota Kinabalu,Sabah,SBH
88200,Kota Kinabalu,Sabah,SBH
88220,Kota Kinabalu,Sabah,SBH
88300,Kota Kinabalu,Sabah,SBH
88400,Kota Kinabalu,Sabah,SBH
88450,Kota Kinabalu,Sabah,SBH
88458,Kota Kinabalu,Sabah,SBH
88460,Kota Kinabalu,Sabah,SBH
88500,Kota Kinabalu,Sabah,SBH
88502,Kota Kinabalu,Sabah,SBH
88504,Kota Kinabalu,Sabah,SBH
88505,Kota Kinabalu,Sabah,SBH
88506,Kota Kinabalu,Sabah,SBH
88508,Kota Kinabalu,Sabah,SBH
88510,Kota Kinabalu,Sabah,SBH
88512,Kota Kinabalu,Sabah,SBH
88514,Kota Kinabalu,Sabah,SBH
88516,Kota Kinabalu,Sabah,SBH
88518,Kota Kinabalu,Sabah,SBH
88520,Kota Kinabalu,Sabah,SBH
88526,Kota Kinabalu,Sabah,SBH
88527,Kota Kinabalu,Sabah,SBH
88532,Kota Kinabalu,Sabah,SBH
88534,Kota Kinabalu,Sabah,SBH
88538,Kota Kinabalu,Sabah,SBH
88540,Kota Kinabalu,Sabah,SBH
88546,Kota Kinabalu,Sabah,SBH
88550,Kota Kinabalu,Sabah,SBH
88551,Kota Kinabalu,Sabah,SBH
88552,Kota Kinabalu,Sabah,SBH
88554,Kota Kinabalu,Sabah,SBH
88556,Kota Kinabalu,Sabah,SBH
88558,Kota Kinabalu,Sabah,SBH
88560,Kota Kinabalu,Sabah,SBH
88562,Kota Kinabalu,Sabah,SBH
88564,Kota Kinabalu,Sabah,SBH
88566,Kota Kinabalu,Sabah,SBH
88568,Kota Kinabalu,Sabah,SBH
88570,Kota Kinabalu,Sabah,SBH
88572,Kota Kinabalu,Sabah,SBH
88576,Kota Kinabalu,Sabah,SBH
88580,Kota Kinabalu,Sabah,SBH
88582,Kota Kinabalu,Sabah,SBH
88586,Kota Kinabalu,Sabah,SBH
88590,Kota Kinabalu,Sabah,SBH
88592,Kota Kinabalu,Sabah,SBH
88594,Kota Kinabalu,Sabah,SBH
88596,Kota Kinabalu,Sabah,SBH
88598,Kota Kinabalu,Sabah,SBH
88600,Kota Kinabalu,Sabah,SBH
88602,Kota Kinabalu,Sabah,SBH
88604,Kota Kinabalu,Sabah,SBH
88606,Kota Kinabalu,Sabah,SBH
88608,Kota Kinabalu,Sabah,SBH
88609,Kota Kinabalu,Sabah,SBH
88610,Kota Kinabalu,Sabah,SBH
88612,Kota Kinabalu,Sabah,SBH
88614,Kota Kinabalu,Sabah,SBH
88617,Kota Kinabalu,Sabah,SBH
88618,Kota Kinabalu,Sabah,SBH
88620,Kota Kinabalu,Sabah,SBH
88621,Kota Kinabalu,Sabah,SBH
88622,Kota Kinabalu,Sabah,SBH
88624,Kota Kinabalu,Sabah,SBH
88626,Kota Kinabalu,Sabah,SBH
88628,Kota Kinabalu,Sabah,SBH
88630,Kota Kinabalu,Sabah,SBH
88632,Kota Kinabalu,Sabah,SBH
88634,Kota Kinabalu,Sabah,SBH
88644,Kota Kinabalu,Sabah,SBH
88646,Kota Kinabalu,Sabah,SBH
88648,Kota Kinabalu,Sabah,SBH
88656,Kota Kinabalu,Sabah,SBH
88658,Kota Kinabalu,Sabah,SBH
88660,Kota Kinabalu,Sabah,SBH
88661,Kota Kinabalu,Sabah,SBH
88662,Kota Kinabalu,Sabah,SBH
88670,Kota Kinabalu,Sabah,SBH
88672,Kota Kinabalu,Sabah,SBH
88673,Kota Kinabalu,Sabah,SBH
88675,Kota Kinabalu,Sabah,SBH
88676,Kota Kinabalu,Sabah,SBH
88680,Kota Kinabalu,Sabah,SBH
88690,Kota Kinabalu,Sabah,SBH
88740,Kota Kinabalu,Sabah,SBH
88757,Kota Kinabalu,Sabah,SBH
88758,Kota Kinabalu,Sabah,SBH
88759,Kota Kinabalu,Sabah,SBH
88760,Kota Kinabalu,Sabah,SBH
88761,Kota Kinabalu,Sabah,SBH
88762,Kota Kinabalu,Sabah,SBH
88763,Kota Kinabalu,Sabah,SBH
88764,Kota Kinabalu,Sabah,SBH
88765,Kota Kinabalu,Sabah,SBH
88766,Kota Kinabalu,Sabah,SBH
88767,Kota Kinabalu,Sabah,SBH
88768,Kota Kinabalu,Sabah,SBH
88769,Kota Kinabalu,Sabah,SBH
88770,Kota Kinabalu,Sabah,SBH
88771,Kota Kinabalu,Sabah,SBH
88772,Kota Kinabalu,Sabah,SBH
88773,Kota Kinabalu,Sabah,SBH
88774,Kota Kinabalu,Sabah,SBH
88775,Kota Kinabalu,Sabah,SBH
88776,Kota Kinabalu,Sabah,SBH
88777,Kota Kinabalu,Sabah,SBH
88778,Kota Kinabalu,Sabah,SBH
88779,Kota Kinabalu,Sabah,SBH
88780,Kota Kinabalu,Sabah,SBH
88781,Kota Kinabalu,Sabah,SBH
88782,Kota Kinabalu,Sabah,SBH
88783,Kota Kinabalu,Sabah,SBH
88784,Kota Kinabalu,Sabah,SBH
88785,Kota Kinabalu,Sabah,SBH
88786,Kota Kinabalu,Sabah,SBH
88787,Kota Kinabalu,Sabah,SBH
88788,Kota Kinabalu,Sabah,SBH
88789,Kota Kinabalu,Sabah,SBH
88790,Kota Kinabalu,Sabah,SBH
88800,Kota Kinabalu,Sabah,SBH
88801,Kota Kinabalu,Sabah,SBH
88802,Kota Kinabalu,Sabah,SBH
88803,Kota Kinabalu,Sabah,SBH
88804,Kota Kinabalu,Sabah,SBH
88805,Kota Kinabalu,Sabah,SBH
88806,Kota Kinabalu,Sabah,SBH
88807,Kota Kinabalu,Sabah,SBH
88808,Kota Kinabalu,Sabah,SBH
88809,Kota Kinabalu,Sabah,SBH
88810,Kota Kinabalu,Sabah,SBH
88811,Kota Kinabalu,Sabah,SBH
88812,Kota Kinabalu,Sabah,SBH
88813,Kota Kinabalu,Sabah,SBH
88814,Kota Kinabalu,Sabah,SBH
88815,Kota Kinabalu,Sabah,SBH
88816,Kota Kinabalu,Sabah,SBH
88817,Kota Kinabalu,Sabah,SBH
88818,Kota Kinabalu,Sabah,SBH
88819,Kota Kinabalu,Sabah,SBH
88820,Kota Kinabalu,Sabah,SBH
88821,Kota Kinabalu,Sabah,SBH
88822,Kota Kinabalu,Sabah,SBH
88823,Kota Kinabalu,Sabah,SBH
88824,Kota Kinabalu,Sabah,SBH
88825,Kota Kinabalu,Sabah,SBH
88826,Kota Kinabalu,Sabah,SBH
88827,Kota Kinabalu,Sabah,SBH
88828,Kota Kinabalu,Sabah,SBH
88829,Kota Kinabalu,Sabah,SBH
88830,Kota Kinabalu,Sabah,SBH
88831,Kota Kinabalu,Sabah,SBH
88832,Kota Kinabalu,Sabah,SBH
88833,Kota Kinabalu,Sabah,SBH
88834,Kota Kinabalu,Sabah,SBH
88835,Kota Kinabalu,Sabah,SBH
88836,Kota Kinabalu,Sabah,SBH
88837,Kota Kinabalu,Sabah,SBH
88838,Kota Kinabalu,Sabah,SBH
88839,Kota Kinabalu,Sabah,SBH
88840,Kota Kinabalu,Sabah,SBH
88841,Kota Kinabalu,Sabah,SBH
88842,Kota Kinabalu,Sabah,SBH
88843,Kota Kinabalu,Sabah,SBH
88844,Kota Kinabalu,Sabah,SBH
88845,Kota Kinabalu,Sabah,SBH
88846,Kota Kinabalu,Sabah,SBH
88847,Kota Kinabalu,Sabah,SBH
88848,Kota Kinabalu,Sabah,SBH
88849,Kota Kinabalu,Sabah,SBH
88850,Kota Kinabalu,Sabah,SBH
88851,Kota Kinabalu,Sabah,SBH
88852,Kota Kinabalu,Sabah,SBH
88853,Kota Kinabalu,Sabah,SBH
88854,Kota Kinabalu,Sabah,SBH
88855,Kota Kinabalu,Sabah,SBH
88860,Kota Kinabalu,Sabah,SBH
88861,Kota Kinabalu,Sabah,SBH
88862,Kota Kinabalu,Sabah,SBH
88863,Kota Kinabalu,Sabah,SBH
88865,Kota Kinabalu,Sabah,SBH
88866,Kota Kinabalu,Sabah,SBH
88867,Kota Kinabalu,Sabah,SBH
88868,Kota Kinabalu,Sabah,SBH
88869,Kota Kinabalu,Sabah,SBH
88870,Kota Kinabalu,Sabah,SBH
88871,Kota Kinabalu,Sabah,SBH
88872,Kota Kinabalu,Sabah,SBH
88873,Kota Kinabalu,Sabah,SBH
88874,Kota Kinabalu,Sabah,SBH
88875,Kota Kinabalu,Sabah,SBH
88900,Kota Kinabalu,Sabah,SBH
88901,Kota Kinabalu,Sabah,SBH
88902,Kota Kinabalu,Sabah,SBH
88903,Kota Kinabalu,Sabah,SBH
88904,Kota Kinabalu,Sabah,SBH
88905,Kota Kinabalu,Sabah,SBH
88906,Kota Kinabalu,Sabah,SBH
88988,Kota Kinabalu,Sabah,SBH
88990,Kota Kinabalu,Sabah,SBH
88991,Kota Kinabalu,Sabah,SBH
88992,Kota Kinabalu,Sabah,SBH
88993,Kota Kinabalu,Sabah,SBH
88994,Kota Kinabalu,Sabah,SBH
88995,Kota Kinabalu,Sabah,SBH
88996,Kota Kinabalu,Sabah,SBH
88997,Kota Kinabalu,Sabah,SBH
88998,Kota Kinabalu,Sabah,SBH
88999,Kota Kinabalu,Sabah,SBH
90200,Kota Kinabatangan,Sabah,SBH
89100,Kota Marudu,Sabah,SBH
89107,Kota Marudu,Sabah,SBH
89108,Kota Marudu,Sabah,SBH
89109,Kota Marudu,Sabah,SBH
89740,Kuala Penyu,Sabah,SBH
89747,Kuala Penyu,Sabah,SBH
89748,Kuala Penyu,Sabah,SBH
89749,Kuala Penyu,Sabah,SBH
89050,Kudat,Sabah,SBH
89057,Kudat,Sabah,SBH
89058,Kudat,Sabah,SBH
89059,Kudat,Sabah,SBH
91200,Kunak,Sabah,SBH
91207,Kunak,Sabah,SBH
91209,Kunak,Sabah,SBH
91100,Lahad Datu,Sabah,SBH
91108,Lahad Datu,Sabah,SBH
91109,Lahad Datu,Sabah,SBH
91110,Lahad Datu,Sabah,SBH
91111,Lahad Datu,Sabah,SBH
91112,Lahad Datu,Sabah,SBH
91113,Lahad Datu,Sabah,SBH
91114,Lahad Datu,Sabah,SBH
91115,Lahad Datu,Sabah,SBH
91116,Lahad Datu,Sabah,SBH
91117,Lahad Datu,Sabah,SBH
91118,Lahad Datu,Sabah,SBH
91119,Lahad Datu,Sabah,SBH
91120,Lahad Datu,Sabah,SBH
91121,Lahad Datu,Sabah,SBH
91122,Lahad Datu,Sabah,SBH
91123,Lahad Datu,Sabah,SBH
91124,Lahad Datu,Sabah,SBH
91125,Lahad Datu,Sabah,SBH
91126,Lahad Datu,Sabah,SBH
91127,Lahad Datu,Sabah,SBH
91128,Lahad Datu,Sabah,SBH
91150,Lahad Datu,Sabah,SBH
88856,Likas,Sabah,SBH
89720,Membakut,Sabah,SBH
89727,Membakut,Sabah,SBH
89728,Membakut,Sabah,SBH
89729,Membakut,Sabah,SBH
89760,Menumbok,Sabah,SBH
89767,Menumbok,Sabah,SBH
89768,Menumbok,Sabah,SBH
89769,Menumbok,Sabah,SBH
89950,Nabawan,Sabah,SBH
89957,Nabawan,Sabah,SBH
89958,Nabawan,Sabah,SBH
89959,Nabawan,Sabah,SBH
90400,Pamol,Sabah,SBH
89600,Papar,Sabah,SBH
89607,Papar,Sabah,SBH
89608,Papar,Sabah,SBH
89609,Papar,Sabah,SBH
89500,Penampang,Sabah,SBH
89507,Penampang,Sabah,SBH
89508,Penampang,Sabah,SBH
89509,Penampang,Sabah,SBH
88721,Putatan,Sabah,SBH
88722,Putatan,Sabah,SBH
88723,Putatan,Sabah,SBH
88724,Putatan,Sabah,SBH
88725,Putatan,Sabah,SBH
89300,Ranau,Sabah,SBH
89307,Ranau,Sabah,SBH
89308,Ranau,Sabah,SBH
89309,Ranau,Sabah,SBH
89320,Ranau,Sabah,SBH
89350,Ranau,Sabah,SBH
89357,Ranau,Sabah,SBH
90000,Sandakan,Sabah,SBH
90008,Sandakan,Sabah,SBH
90009,Sandakan,Sabah,SBH
90300,Sandakan,Sabah,SBH
90307,Sandakan,Sabah,SBH
90700,Sandakan,Sabah,SBH
90701,Sandakan,Sabah,SBH
90702,Sandakan,Sabah,SBH
90703,Sandakan,Sabah,SBH
90704,Sandakan,Sabah,SBH
90705,Sandakan,Sabah,SBH
90706,Sandakan,Sabah,SBH
90707,Sandakan,Sabah,SBH
90708,Sandakan,Sabah,SBH
90709,Sandakan,Sabah,SBH
90711,Sandakan,Sabah,SBH
90712,Sandakan,Sabah,SBH
90713,Sandakan,Sabah,SBH
90714,Sandakan,Sabah,SBH
90715,Sandakan,Sabah,SBH
90716,Sandakan,Sabah,SBH
90717,Sandakan,Sabah,SBH
90718,Sandakan,Sabah,SBH
90719,Sandakan,Sabah,SBH
90720,Sandakan,Sabah,SBH
90721,Sandakan,Sabah,SBH
90722,Sandakan,Sabah,SBH
90723,Sandakan,Sabah,SBH
90724,Sandakan,Sabah,SBH
90725,Sandakan,Sabah,SBH
90726,Sandakan,Sabah,SBH
90727,Sandakan,Sabah,SBH
90728,Sandakan,Sabah,SBH
90729,Sandakan,Sabah,SBH
90730,Sandakan,Sabah,SBH
90731,Sandakan,Sabah,SBH
90732,Sandakan,Sabah,SBH
90733,Sandakan,Sabah,SBH
90734,Sandakan,Sabah,SBH
90735,Sandakan,Sabah,SBH
90736,Sandakan,Sabah,SBH
90737,Sandakan,Sabah,SBH
90738,Sandakan,Sabah,SBH
90739,Sandakan,Sabah,SBH
90740,Sandakan,Sabah,SBH
90741,Sandakan,Sabah,SBH
91300,Semporna,Sabah,SBH
91307,Semporna,Sabah,SBH
91308,Semporna,Sabah,SBH
91309,Semporna,Sabah,SBH
89850,Sipitang,Sabah,SBH
89857,Sipitang,Sabah,SBH
89858,Sipitang,Sabah,SBH
89859,Sipitang,Sabah,SBH
89650,Tambunan,Sabah,SBH
89657,Tambunan,Sabah,SBH
89658,Tambunan,Sabah,SBH
89659,Tambunan,Sabah,SBH
89250,Tamparuli,Sabah,SBH
89257,Tamparuli,Sabah,SBH
89258,Tamparuli,Sabah,SBH
89259,Tamparuli,Sabah,SBH
88858,Tanjung Aru,Sabah,SBH
91000,Tawau,Sabah,SBH
91007,Tawau,Sabah,SBH
91008,Tawau,Sabah,SBH
91009,Tawau,Sabah,SBH
91010,Tawau,Sabah,SBH
91011,Tawau,Sabah,SBH
91012,Tawau,Sabah,SBH
91013,Tawau,Sabah,SBH
91014,Tawau,Sabah,SBH
91015,Tawau,Sabah,SBH
91016,Tawau,Sabah,SBH
91017,Tawau,Sabah,SBH
91018,Tawau,Sabah,SBH
91019,Tawau,Sabah,SBH
91020,Tawau,Sabah,SBH
91021,Tawau,Sabah,SBH
91022,Tawau,Sabah,SBH
91023,Tawau,Sabah,SBH
91024,Tawau,Sabah,SBH
91025,Tawau,Sabah,SBH
91026,Tawau,Sabah,SBH
91027,Tawau,Sabah,SBH
91028,Tawau,Sabah,SBH
91029,Tawau,Sabah,SBH
91030,Tawau,Sabah,SBH
91031,Tawau,Sabah,SBH
91032,Tawau,Sabah,SBH
91033,Tawau,Sabah,SBH
91034,Tawau,Sabah,SBH
91035,Tawau,Sabah,SBH
91045,Tawau,Sabah,SBH
91056,Tawau,Sabah,SBH
89260,Tenghilan,Sabah,SBH
89900,Tenom,Sabah,SBH
89907,Tenom,Sabah,SBH
89908,Tenom,Sabah,SBH
89909,Tenom,Sabah,SBH
89200,Tuaran,Sabah,SBH
89207,Tuaran,Sabah,SBH
89208,Tuaran,Sabah,SBH
89209,Tuaran,Sabah,SBH
