postcode,city,state,state_code
94600,Asajaya,Sarawak,SRW
96350,Balingian,Sarawak,SRW
98050,Baram,Sarawak,SRW
98057,Baram,Sarawak,SRW
98058,Baram,Sarawak,SRW
98059,Baram,Sarawak,SRW
94000,Bau,Sarawak,SRW
94007,Bau,Sarawak,SRW
94009,Bau,Sarawak,SRW
98150,Bekenu,Sarawak,SRW
98157,Bekenu,Sarawak,SRW
98159,Bekenu,Sarawak,SRW
96900,Belaga,Sarawak,SRW
96950,Belaga,Sarawak,SRW
96999,Belaga,Sarawak,SRW
96150,Belawai,Sarawak,SRW
95700,Betong,Sarawak,SRW
95707,Betong,Sarawak,SRW
95709,Betong,Sarawak,SRW
96500,Bintangor,Sarawak,SRW
96507,Bintangor,Sarawak,SRW
96508,Bintangor,Sarawak,SRW
96509,Bintangor,Sarawak,SRW
96510,Bintangor,Sarawak,SRW
97000,Bintulu,Sarawak,SRW
97004,Bintulu,Sarawak,SRW
97007,Bintulu,Sarawak,SRW
97008,Bintulu,Sarawak,SRW
97009,Bintulu,Sarawak,SRW
97010,Bintulu,Sarawak,SRW
97011,Bintulu,Sarawak,SRW
97012,Bintulu,Sarawak,SRW
97013,Bintulu,Sarawak,SRW
97014,Bintulu,Sarawak,SRW
97015,Bintulu,Sarawak,SRW
97300,Bintulu,Sarawak,SRW
96300,Dalat,Sarawak,SRW
96307,Dalat,Sarawak,SRW
96309,Dalat,Sarawak,SRW
96200,Daro,Sarawak,SRW
95500,Debak,Sarawak,SRW
95800,Engkilili,Sarawak,SRW
96600,Julau,Sarawak,SRW
94650,Kabong,Sarawak,SRW
96700,Kanowit,Sarawak,SRW
96707,Kanowit,Sarawak,SRW
96709,Kanowit,Sarawak,SRW
96800,Kapit,Sarawak,SRW
96807,Kapit,Sarawak,SRW
96809,Kapit,Sarawak,SRW
94300,Kota Samarahan,Sarawak,SRW
93000,Kuching,Sarawak,SRW
93010,Kuching,Sarawak,SRW
93030,Kuching,Sarawak,SRW
93050,Kuching,Sarawak,SRW
93100,Kuching,Sarawak,SRW
93150,Kuching,Sarawak,SRW
93200,Kuching,Sarawak,SRW
93250,Kuching,Sarawak,SRW
93300,Kuching,Sarawak,SRW
93350,Kuching,Sarawak,SRW
93400,Kuching,Sarawak,SRW
93450,Kuching,Sarawak,SRW
93500,Kuching,Sarawak,SRW
93502,Kuching,Sarawak,SRW
93503,Kuching,Sarawak,SRW
93504,Kuching,Sarawak,SRW
93505,Kuching,Sarawak,SRW
93506,Kuching,Sarawak,SRW
93507,Kuching,Sarawak,SRW
93508,Kuching,Sarawak,SRW
93514,Kuching,Sarawak,SRW
93516,Kuching,Sarawak,SRW
93517,Kuching,Sarawak,SRW
93518,Kuching,Sarawak,SRW
93519,Kuching,Sarawak,SRW
93520,Kuching,Sarawak,SRW
93527,Kuching,Sarawak,SRW
93529,Kuching,Sarawak,SRW
93532,Kuching,Sarawak,SRW
93540,Kuching,Sarawak,SRW
93550,Kuching,Sarawak,SRW
93551,Kuching,Sarawak,SRW
93552,Kuching,Sarawak,SRW
93554,Kuching,Sarawak,SRW
93556,Kuching,Sarawak,SRW
93558,Kuching,Sarawak,SRW
93560,Kuching,Sarawak,SRW
93564,Kuching,Sarawak,SRW
93566,Kuching,Sarawak,SRW
93570,Kuching,Sarawak,SRW
93572,Kuching,Sarawak,SRW
93576,Kuching,Sarawak,SRW
93578,Kuching,Sarawak,SRW
93582,Kuching,Sarawak,SRW
93586,Kuching,Sarawak,SRW
93590,Kuching,Sarawak,SRW
93592,Kuching,Sarawak,SRW
93594,Kuching,Sarawak,SRW
93596,Kuching,Sarawak,SRW
93600,Kuching,Sarawak,SRW
93604,Kuching,Sarawak,SRW
93606,Kuching,Sarawak,SRW
93608,Kuching,Sarawak,SRW
93609,Kuching,Sarawak,SRW
93610,Kuching,Sarawak,SRW
93612,Kuching,Sarawak,SRW
93614,Kuching,Sarawak,SRW
93618,Kuching,Sarawak,SRW
93619,Kuching,Sarawak,SRW
93620,Kuching,Sarawak,SRW
93626,Kuching,Sarawak,SRW
93628,Kuching,Sarawak,SRW
93632,Kuching,Sarawak,SRW
93634,Kuching,Sarawak,SRW
93648,Kuching,Sarawak,SRW
93658,Kuching,Sarawak,SRW
93660,Kuching,Sarawak,SRW
93661,Kuching,Sarawak,SRW
93662,Kuching,Sarawak,SRW
93668,Kuching,Sarawak,SRW
93670,Kuching,Sarawak,SRW
93672,Kuching,Sarawak,SRW
93677,Kuching,Sarawak,SRW
93690,Kuching,Sarawak,SRW
93694,Kuching,Sarawak,SRW
93700,Kuching,Sarawak,SRW
93702,Kuching,Sarawak,SRW
93704,Kuching,Sarawak,SRW
93706,Kuching,Sarawak,SRW
93708,Kuching,Sarawak,SRW
93710,Kuching,Sarawak,SRW
93712,Kuching,Sarawak,SRW
93714,Kuching,Sarawak,SRW
93716,Kuching,Sarawak,SRW
93718,Kuching,Sarawak,SRW
93720,Kuching,Sarawak,SRW
93722,Kuching,Sarawak,SRW
93724,Kuching,Sarawak,SRW
93726,Kuching,Sarawak,SRW
93728,Kuching,Sarawak,SRW
93730,Kuching,Sarawak,SRW
93732,Kuching,Sarawak,SRW
93734,Kuching,Sarawak,SRW
93736,Kuching,Sarawak,SRW
93738,Kuching,Sarawak,SRW
93740,Kuching,Sarawak,SRW
93742,Kuching,Sarawak,SRW
93744,Kuching,Sarawak,SRW
93746,Kuching,Sarawak,SRW
93748,Kuching,Sarawak,SRW
93750,Kuching,Sarawak,SRW
93752,Kuching,Sarawak,SRW
93754,Kuching,Sarawak,SRW
93756,Kuching,Sarawak,SRW
93758,Kuching,Sarawak,SRW
93760,Kuching,Sarawak,SRW
93762,Kuching,Sarawak,SRW
93764,Kuching,Sarawak,SRW
93900,Kuching,Sarawak,SRW
93902,Kuching,Sarawak,SRW
93904,Kuching,Sarawak,SRW
93906,Kuching,Sarawak,SRW
93908,Kuching,Sarawak,SRW
93910,Kuching,Sarawak,SRW
93912,Kuching,Sarawak,SRW
93914,Kuching,Sarawak,SRW
93916,Kuching,Sarawak,SRW
93990,Kuching,Sarawak,SRW
98850,Lawas,Sarawak,SRW
98857,Lawas,Sarawak,SRW
98859,Lawas,Sarawak,SRW
98700,Limbang,Sarawak,SRW
98707,Limbang,Sarawak,SRW
98708,Limbang,Sarawak,SRW
98709,Limbang,Sarawak,SRW
94900,Lingga,Sarawak,SRW
98300,Long Lama,Sarawak,SRW
95900,Lubok Antu,Sarawak,SRW
94500,Lundu,Sarawak,SRW
94507,Lundu,Sarawak,SRW
94509,Lundu,Sarawak,SRW
98100,Lutong,Sarawak,SRW
98107,Lutong,Sarawak,SRW
98109,Lutong,Sarawak,SRW
96250,Matu,Sarawak,SRW
98000,Miri,Sarawak,SRW
98007,Miri,Sarawak,SRW
98008,Miri,Sarawak,SRW
98009,Miri,Sarawak,SRW
96400,Mukah,Sarawak,SRW
96410,Mukah,Sarawak,SRW
98750,Nanga Medamit,Sarawak,SRW
98200,Niah,Sarawak,SRW
94950,Pusa,Sarawak,SRW
98070,Pusat Mel Miri,Sarawak,SRW
95300,Roban,Sarawak,SRW
95400,Saratok,Sarawak,SRW
95407,Saratok,Sarawak,SRW
95409,Saratok,Sarawak,SRW
96100,Sarikei,Sarawak,SRW
96107,Sarikei,Sarawak,SRW
96108,Sarikei,Sarawak,SRW
96109,Sarikei,Sarawak,SRW
97100,Sebauh,Sarawak,SRW
94850,Sebuyau,Sarawak,SRW
94700,Serian,Sarawak,SRW
94707,Serian,Sarawak,SRW
94709,Serian,Sarawak,SRW
94750,Serian,Sarawak,SRW
94760,Serian,Sarawak,SRW
96000,Sibu,Sarawak,SRW
96007,Sibu,Sarawak,SRW
96008,Sibu,Sarawak,SRW
96009,Sibu,Sarawak,SRW
96010,Sibu Jaya,Sarawak,SRW
94200,Siburan,Sarawak,SRW
94800,Simunjan,Sarawak,SRW
94807,Simunjan,Sarawak,SRW
94809,Simunjan,Sarawak,SRW
96850,Song,Sarawak,SRW
95600,Spaoh,Sarawak,SRW
95000,Sri Aman,Sarawak,SRW
95007,Sri Aman,Sarawak,SRW
95008,Sri Aman,Sarawak,SRW
95009,Sri Aman,Sarawak,SRW
98800,Sundar,Sarawak,SRW
97200,Tatau,Sarawak,SRW
