postcode,city,state,state_code
82100,Ayer Baloi,Johor,JHR
86100,Ayer Hitam,Johor,JHR
81920,Ayer Tawar 2,Johor,JHR
81930,Bandar Penawar,Johor,JHR
81960,Bandar Penawar,Johor,JHR
81440,Bandar Tenggara,Johor,JHR
85100,Batu Anam,Johor,JHR
83000,Batu Pahat,Johor,JHR
83010,Batu Pahat,Johor,JHR
83020,Batu Pahat,Johor,JHR
83030,Batu Pahat,Johor,JHR
83040,Batu Pahat,Johor,JHR
83050,Batu Pahat,Johor,JHR
86400,Batu Pahat,Johor,JHR
86500,Bekok,Johor,JHR
82200,Benut,Johor,JHR
84800,Bukit Gambir,Johor,JHR
84300,Bukit Pasir,Johor,JHR
85400,Chaah,Johor,JHR
86900,Endau,Johor,JHR
86999,Endau,Johor,JHR
81550,Gelang Patah,Johor,JHR
81560,Gelang Patah,Johor,JHR
84700,Gerisek,Johor,JHR
84710,Gerisek,Johor,JHR
81450,Gugusan Taib Andak,Johor,JHR
79000,Iskandar Puteri,Johor,JHR
79050,Iskandar Puteri,Johor,JHR
79100,Iskandar Puteri,Johor,JHR
79150,Iskandar Puteri,Johor,JHR
79200,Iskandar Puteri,Johor,JHR
79250,Iskandar Puteri,Johor,JHR
79502,Iskandar Puteri,Johor,JHR
79503,Iskandar Puteri,Johor,JHR
79504,Iskandar Puteri,Johor,JHR
79505,Iskandar Puteri,Johor,JHR
79511,Iskandar Puteri,Johor,JHR
79513,Iskandar Puteri,Johor,JHR
79514,Iskandar Puteri,Johor,JHR
79517,Iskandar Puteri,Johor,JHR
79518,Iskandar Puteri,Johor,JHR
79520,Iskandar Puteri,Johor,JHR
79521,Iskandar Puteri,Johor,JHR
79523,Iskandar Puteri,Johor,JHR
79532,Iskandar Puteri,Johor,JHR
79538,Iskandar Puteri,Johor,JHR
79540,Iskandar Puteri,Johor,JHR
79546,Iskandar Puteri,Johor,JHR
79548,Iskandar Puteri,Johor,JHR
79550,Iskandar Puteri,Johor,JHR
79552,Iskandar Puteri,Johor,JHR
79555,Iskandar Puteri,Johor,JHR
79570,Iskandar Puteri,Johor,JHR
79575,Iskandar Puteri,Johor,JHR
79576,Iskandar Puteri,Johor,JHR
79592,Iskandar Puteri,Johor,JHR
79601,Iskandar Puteri,Johor,JHR
79603,Iskandar Puteri,Johor,JHR
79605,Iskandar Puteri,Johor,JHR
79606,Iskandar Puteri,Johor,JHR
79612,Iskandar Puteri,Johor,JHR
79626,Iskandar Puteri,Johor,JHR
79630,Iskandar Puteri,Johor,JHR
79632,Iskandar Puteri,Johor,JHR
79646,Iskandar Puteri,Johor,JHR
79658,Iskandar Puteri,Johor,JHR
79660,Iskandar Puteri,Johor,JHR
79680,Iskandar Puteri,Johor,JHR
79681,Iskandar Puteri,Johor,JHR
79683,Iskandar Puteri,Johor,JHR
85200,Jementah,Johor,JHR
85210,Jementah,Johor,JHR
80000,Johor Bahru,Johor,JHR
80050,Johor Bahru,Johor,JHR
80100,Johor Bahru,Johor,JHR
80110,Johor Bahru,Johor,JHR
80150,Johor Bahru,Johor,JHR
80200,Johor Bahru,Johor,JHR
80250,Johor Bahru,Johor,JHR
80300,Johor Bahru,Johor,JHR
80350,Johor Bahru,Johor,JHR
80400,Johor Bahru,Johor,JHR
80500,Johor Bahru,Johor,JHR
80502,Johor Bahru,Johor,JHR
80503,Johor Bahru,Johor,JHR
80504,Johor Bahru,Johor,JHR
80505,Johor Bahru,Johor,JHR
80506,Johor Bahru,Johor,JHR
80508,Johor Bahru,Johor,JHR
80514,Johor Bahru,Johor,JHR
80516,Johor Bahru,Johor,JHR
80517,Johor Bahru,Johor,JHR
80518,Johor Bahru,Johor,JHR
80519,Johor Bahru,Johor,JHR
80520,Johor Bahru,Johor,JHR
80529,Johor Bahru,Johor,JHR
80530,Johor Bahru,Johor,JHR
80532,Johor Bahru,Johor,JHR
80534,Johor Bahru,Johor,JHR
80536,Johor Bahru,Johor,JHR
80538,Johor Bahru,Johor,JHR
80540,Johor Bahru,Johor,JHR
80542,Johor Bahru,Johor,JHR
80546,Johor Bahru,Johor,JHR
80548,Johor Bahru,Johor,JHR
80550,Johor Bahru,Johor,JHR
80552,Johor Bahru,Johor,JHR
80558,Johor Bahru,Johor,JHR
80560,Johor Bahru,Johor,JHR
80564,Johor Bahru,Johor,JHR
80568,Johor Bahru,Johor,JHR
80570,Johor Bahru,Johor,JHR
80576,Johor Bahru,Johor,JHR
80578,Johor Bahru,Johor,JHR
80584,Johor Bahru,Johor,JHR
80586,Johor Bahru,Johor,JHR
80590,Johor Bahru,Johor,JHR
80592,Johor Bahru,Johor,JHR
80594,Johor Bahru,Johor,JHR
80596,Johor Bahru,Johor,JHR
80600,Johor Bahru,Johor,JHR
80604,Johor Bahru,Johor,JHR
80606,Johor Bahru,Johor,JHR
80608,Johor Bahru,Johor,JHR
80610,Johor Bahru,Johor,JHR
80612,Johor Bahru,Johor,JHR
80620,Johor Bahru,Johor,JHR
80622,Johor Bahru,Johor,JHR
80626,Johor Bahru,Johor,JHR
80628,Johor Bahru,Johor,JHR
80630,Johor Bahru,Johor,JHR
80632,Johor Bahru,Johor,JHR
80644,Johor Bahru,Johor,JHR
80646,Johor Bahru,Johor,JHR
80648,Johor Bahru,Johor,JHR
80658,Johor Bahru,Johor,JHR
80660,Johor Bahru,Johor,JHR
80662,Johor Bahru,Johor,JHR
80664,Johor Bahru,Johor,JHR
80668,Johor Bahru,Johor,JHR
80670,Johor Bahru,Johor,JHR
80672,Johor Bahru,Johor,JHR
80673,Johor Bahru,Johor,JHR
80676,Johor Bahru,Johor,JHR
80700,Johor Bahru,Johor,JHR
80710,Johor Bahru,Johor,JHR
80720,Johor Bahru,Johor,JHR
80730,Johor Bahru,Johor,JHR
80750,Johor Bahru,Johor,JHR
80800,Johor Bahru,Johor,JHR
80900,Johor Bahru,Johor,JHR
80902,Johor Bahru,Johor,JHR
80904,Johor Bahru,Johor,JHR
80906,Johor Bahru,Johor,JHR
80908,Johor Bahru,Johor,JHR
80988,Johor Bahru,Johor,JHR
80990,Johor Bahru,Johor,JHR
81100,Johor Bahru,Johor,JHR
81110,Johor Bahru,Johor,JHR
81120,Johor Bahru,Johor,JHR
81200,Johor Bahru,Johor,JHR
81250,Johor Bahru,Johor,JHR
81300,Johor Bahru,Johor,JHR
81310,Johor Bahru,Johor,JHR
86700,Kahang,Johor,JHR
86000,Kluang,Johor,JHR
86007,Kluang,Johor,JHR
81900,Kota Tinggi,Johor,JHR
81907,Kota Tinggi,Johor,JHR
81910,Kota Tinggi,Johor,JHR
82300,Kukup,Johor,JHR
81000,Kulai,Johor,JHR
81010,Kulai,Johor,JHR
81020,Kulai,Johor,JHR
81030,Kulai,Johor,JHR
81040,Kulai,Johor,JHR
81050,Kulai,Johor,JHR
85300,Labis,Johor,JHR
81850,Layang-Layang,Johor,JHR
81750,Masai,Johor,JHR
81760,Masai,Johor,JHR
86800,Mersing,Johor,JHR
86810,Mersing,Johor,JHR
84000,Muar,Johor,JHR
84007,Muar,Johor,JHR
84010,Muar,Johor,JHR
84020,Muar,Johor,JHR
84030,Muar,Johor,JHR
84040,Muar,Johor,JHR
84050,Muar,Johor,JHR
84100,Muar,Johor,JHR
84200,Muar,Johor,JHR
84300,Muar,Johor,JHR
84410,Muar,Johor,JHR
84600,Pagoh,Johor,JHR
86600,Paloh,Johor,JHR
84500,Panchor,Johor,JHR
84150,Parit Jawa,Johor,JHR
84160,Parit Jawa,Johor,JHR
86400,Parit Raja,Johor,JHR
83500,Parit Sulong,Johor,JHR
81700,Pasir Gudang,Johor,JHR
81500,Pekan Nenas,Johor,JHR
81600,Pengerang,Johor,JHR
81620,Pengerang,Johor,JHR
81650,Pengerang,Johor,JHR
82000,Pontian,Johor,JHR
82010,Pontian,Johor,JHR
82020,Pontian,Johor,JHR
82030,Pontian,Johor,JHR
86300,Rengam,Johor,JHR
83100,Rengit,Johor,JHR
85000,Segamat,Johor,JHR
85010,Segamat,Johor,JHR
85020,Segamat,Johor,JHR
85030,Segamat,Johor,JHR
85060,Segamat,Johor,JHR
85070,Segamat,Johor,JHR
85080,Segamat,Johor,JHR
83600,Semerah,Johor,JHR
83610,Semerah,Johor,JHR
81400,Senai,Johor,JHR
81410,Senai,Johor,JHR
83200,Senggarang,Johor,JHR
83300,Seri Gading,Johor,JHR
83400,Seri Medan,Johor,JHR
86200,Simpang Rengam,Johor,JHR
84400,Sungai Mati,Johor,JHR
84409,Sungai Mati,Johor,JHR
84900,Tangkak,Johor,JHR
84990,Tangkak,Johor,JHR
86800,Tioman,Johor,JHR
81800,Ulu Tiram,Johor,JHR
81810,Ulu Tiram,Johor,JHR
83700,Yong Peng,Johor,JHR
83710,Yong Peng,Johor,JHR
05000,Alor Setar,Kedah,KDH
05050,Alor Setar,Kedah,KDH
05100,Alor Setar,Kedah,KDH
05150,Alor Setar,Kedah,KDH
05200,Alor Setar,Kedah,KDH
05250,Alor Setar,Kedah,KDH
05300,Alor Setar,Kedah,KDH
05350,Alor Setar,Kedah,KDH
05400,Alor Setar,Kedah,KDH
05450,Alor Setar,Kedah,KDH
05460,Alor Setar,Kedah,KDH
05500,Alor Setar,Kedah,KDH
05502,Alor Setar,Kedah,KDH
05503,Alor Setar,Kedah,KDH
05504,Alor Setar,Kedah,KDH
05505,Alor Setar,Kedah,KDH
05506,Alor Setar,Kedah,KDH
05508,Alor Setar,Kedah,KDH
05512,Alor Setar,Kedah,KDH
05514,Alor Setar,Kedah,KDH
05516,Alor Setar,Kedah,KDH
05517,Alor Setar,Kedah,KDH
05518,Alor Setar,Kedah,KDH
05520,Alor Setar,Kedah,KDH
05532,Alor Setar,Kedah,KDH
05534,Alor Setar,Kedah,KDH
05536,Alor Setar,Kedah,KDH
05538,Alor Setar,Kedah,KDH
05550,Alor Setar,Kedah,KDH
05551,Alor Setar,Kedah,KDH
05552,Alor Setar,Kedah,KDH
05556,Alor Setar,Kedah,KDH
05558,Alor Setar,Kedah,KDH
05560,Alor Setar,Kedah,KDH
05564,Alor Setar,Kedah,KDH
05576,Alor Setar,Kedah,KDH
05578,Alor Setar,Kedah,KDH
05580,Alor Setar,Kedah,KDH
05582,Alor Setar,Kedah,KDH
05586,Alor Setar,Kedah,KDH
05590,Alor Setar,Kedah,KDH
05592,Alor Setar,Kedah,KDH
05594,Alor Setar,Kedah,KDH
05600,Alor Setar,Kedah,KDH
05604,Alor Setar,Kedah,KDH
05610,Alor Setar,Kedah,KDH
05612,Alor Setar,Kedah,KDH
05614,Alor Setar,Kedah,KDH
05620,Alor Setar,Kedah,KDH
05621,Alor Setar,Kedah,KDH
05622,Alor Setar,Kedah,KDH
05626,Alor Setar,Kedah,KDH
05628,Alor Setar,Kedah,KDH
05630,Alor Setar,Kedah,KDH
05632,Alor Setar,Kedah,KDH
05644,Alor Setar,Kedah,KDH
05660,Alor Setar,Kedah,KDH
05661,Alor Setar,Kedah,KDH
05664,Alor Setar,Kedah,KDH
05670,Alor Setar,Kedah,KDH
05672,Alor Setar,Kedah,KDH
05673,Alor Setar,Kedah,KDH
05674,Alor Setar,Kedah,KDH
05675,Alor Setar,Kedah,KDH
05676,Alor Setar,Kedah,KDH
05680,Alor Setar,Kedah,KDH
05690,Alor Setar,Kedah,KDH
05696,Alor Setar,Kedah,KDH
05700,Alor Setar,Kedah,KDH
05710,Alor Setar,Kedah,KDH
05720,Alor Setar,Kedah,KDH
05990,Alor Setar,Kedah,KDH
06250,Alor Setar,Kedah,KDH
06509,Alor Setar,Kedah,KDH
06550,Alor Setar,Kedah,KDH
06570,Alor Setar,Kedah,KDH
06660,Alor Setar,Kedah,KDH
06150,Ayer Hitam,Kedah,KDH
09100,Baling,Kedah,KDH
34950,Bandar Baharu,Kedah,KDH
14290,Bandar Bahru,Kedah,KDH
14390,Bandar Bahru,Kedah,KDH
08100,Bedong,Kedah,KDH
08110,Bedong,Kedah,KDH
06050,Bukit Kayu Hitam,Kedah,KDH
06010,Changloon,Kedah,KDH
08300,Gurun,Kedah,KDH
08330,Gurun,Kedah,KDH
08800,Gurun,Kedah,KDH
08320,Jeniang,Kedah,KDH
08700,Jeniang,Kedah,KDH
06000,Jitra,Kedah,KDH
06007,Jitra,Kedah,KDH
06009,Jitra,Kedah,KDH
09700,Karangan,Kedah,KDH
06200,Kepala Batas,Kedah,KDH
06207,Kepala Batas,Kedah,KDH
06209,Kepala Batas,Kedah,KDH
06100,Kodiang,Kedah,KDH
08500,Kota Kuala Muda,Kedah,KDH
08507,Kota Kuala Muda,Kedah,KDH
08509,Kota Kuala Muda,Kedah,KDH
06800,Kota Sarang Semut,Kedah,KDH
06600,Kuala Kedah,Kedah,KDH
09300,Kuala Ketil,Kedah,KDH
09310,Kuala Ketil,Kedah,KDH
06300,Kuala Nerang,Kedah,KDH
09110,Kuala Pegang,Kedah,KDH
09000,Kulim,Kedah,KDH
09007,Kulim,Kedah,KDH
09009,Kulim,Kedah,KDH
09010,Kulim,Kedah,KDH
09020,Kulim,Kedah,KDH
09200,Kupang,Kedah,KDH
06500,Langgar,Kedah,KDH
06507,Langgar,Kedah,KDH
07000,Langkawi,Kedah,KDH
07007,Langkawi,Kedah,KDH
07009,Langkawi,Kedah,KDH
07100,Langkawi,Kedah,KDH
09600,Lunas,Kedah,KDH
08400,Merbok,Kedah,KDH
08407,Merbok,Kedah,KDH
08409,Merbok,Kedah,KDH
09400,Padang Serai,Kedah,KDH
09410,Padang Serai,Kedah,KDH
06700,Pendang,Kedah,KDH
06707,Pendang,Kedah,KDH
06709,Pendang,Kedah,KDH
06710,Pendang,Kedah,KDH
06720,Pendang,Kedah,KDH
06750,Pendang,Kedah,KDH
06760,Pendang,Kedah,KDH
06350,Pokok Sena,Kedah,KDH
06400,Pokok Sena,Kedah,KDH
09800,Serdang,Kedah,KDH
09810,Serdang,Kedah,KDH
08200,Sik,Kedah,KDH
08210,Sik,Kedah,KDH
08340,Sik,Kedah,KDH
06650,Simpang Empat,Kedah,KDH
06680,Simpang Empat,Kedah,KDH
08000,Sungai Petani,Kedah,KDH
08007,Sungai Petani,Kedah,KDH
08009,Sungai Petani,Kedah,KDH
08010,Sungai Petani,Kedah,KDH
08600,Sungai Petani,Kedah,KDH
06900,Yan,Kedah,KDH
06910,Yan,Kedah,KDH
17700,Ayer Lanas,Kelantan,KTN
16020,Bachok,Kelantan,KTN
16030,Bachok,Kelantan,KTN
16050,Bachok,Kelantan,KTN
16060,Bachok,Kelantan,KTN
16070,Bachok,Kelantan,KTN
16090,Bachok,Kelantan,KTN
16300,Bachok,Kelantan,KTN
16310,Bachok,Kelantan,KTN
16320,Bachok,Kelantan,KTN
16350,Bachok,Kelantan,KTN
16370,Bachok,Kelantan,KTN
16390,Bachok,Kelantan,KTN
16700,Cherang Ruku,Kelantan,KTN
18200,Dabong,Kelantan,KTN
18300,Gua Musang,Kelantan,KTN
17600,Jeli,Kelantan,KTN
16500,Kem Desa Pahlawan,Kelantan,KTN
16450,Ketereh,Kelantan,KTN
15000,Kota Bharu,Kelantan,KTN
15050,Kota Bharu,Kelantan,KTN
15100,Kota Bharu,Kelantan,KTN
15150,Kota Bharu,Kelantan,KTN
15159,Kota Bharu,Kelantan,KTN
15160,Kota Bharu,Kelantan,KTN
15200,Kota Bharu,Kelantan,KTN
15300,Kota Bharu,Kelantan,KTN
15350,Kota Bharu,Kelantan,KTN
15400,Kota Bharu,Kelantan,KTN
15500,Kota Bharu,Kelantan,KTN
15502,Kota Bharu,Kelantan,KTN
15503,Kota Bharu,Kelantan,KTN
15504,Kota Bharu,Kelantan,KTN
15505,Kota Bharu,Kelantan,KTN
15506,Kota Bharu,Kelantan,KTN
15508,Kota Bharu,Kelantan,KTN
15512,Kota Bharu,Kelantan,KTN
15514,Kota Bharu,Kelantan,KTN
15516,Kota Bharu,Kelantan,KTN
15517,Kota Bharu,Kelantan,KTN
15518,Kota Bharu,Kelantan,KTN
15519,Kota Bharu,Kelantan,KTN
15520,Kota Bharu,Kelantan,KTN
15524,Kota Bharu,Kelantan,KTN
15529,Kota Bharu,Kelantan,KTN
15532,Kota Bharu,Kelantan,KTN
15534,Kota Bharu,Kelantan,KTN
15536,Kota Bharu,Kelantan,KTN
15538,Kota Bharu,Kelantan,KTN
15540,Kota Bharu,Kelantan,KTN
15546,Kota Bharu,Kelantan,KTN
15548,Kota Bharu,Kelantan,KTN
15550,Kota Bharu,Kelantan,KTN
15551,Kota Bharu,Kelantan,KTN
15556,Kota Bharu,Kelantan,KTN
15558,Kota Bharu,Kelantan,KTN
15560,Kota Bharu,Kelantan,KTN
15564,Kota Bharu,Kelantan,KTN
15570,Kota Bharu,Kelantan,KTN
15572,Kota Bharu,Kelantan,KTN
15576,Kota Bharu,Kelantan,KTN
15578,Kota Bharu,Kelantan,KTN
15582,Kota Bharu,Kelantan,KTN
15586,Kota Bharu,Kelantan,KTN
15590,Kota Bharu,Kelantan,KTN
15592,Kota Bharu,Kelantan,KTN
15594,Kota Bharu,Kelantan,KTN
15596,Kota Bharu,Kelantan,KTN
15600,Kota Bharu,Kelantan,KTN
15604,Kota Bharu,Kelantan,KTN
15606,Kota Bharu,Kelantan,KTN
15608,Kota Bharu,Kelantan,KTN
15609,Kota Bharu,Kelantan,KTN
15610,Kota Bharu,Kelantan,KTN
15612,Kota Bharu,Kelantan,KTN
15614,Kota Bharu,Kelantan,KTN
15616,Kota Bharu,Kelantan,KTN
15620,Kota Bharu,Kelantan,KTN
15622,Kota Bharu,Kelantan,KTN
15623,Kota Bharu,Kelantan,KTN
15624,Kota Bharu,Kelantan,KTN
15626,Kota Bharu,Kelantan,KTN
15628,Kota Bharu,Kelantan,KTN
15630,Kota Bharu,Kelantan,KTN
15632,Kota Bharu,Kelantan,KTN
15634,Kota Bharu,Kelantan,KTN
15644,Kota Bharu,Kelantan,KTN
15646,Kota Bharu,Kelantan,KTN
15648,Kota Bharu,Kelantan,KTN
15658,Kota Bharu,Kelantan,KTN
15660,Kota Bharu,Kelantan,KTN
15661,Kota Bharu,Kelantan,KTN
15662,Kota Bharu,Kelantan,KTN
15664,Kota Bharu,Kelantan,KTN
15670,Kota Bharu,Kelantan,KTN
15672,Kota Bharu,Kelantan,KTN
15673,Kota Bharu,Kelantan,KTN
15674,Kota Bharu,Kelantan,KTN
15676,Kota Bharu,Kelantan,KTN
15680,Kota Bharu,Kelantan,KTN
15690,Kota Bharu,Kelantan,KTN
15700,Kota Bharu,Kelantan,KTN
15710,Kota Bharu,Kelantan,KTN
15720,Kota Bharu,Kelantan,KTN
15730,Kota Bharu,Kelantan,KTN
15740,Kota Bharu,Kelantan,KTN
15988,Kota Bharu,Kelantan,KTN
15990,Kota Bharu,Kelantan,KTN
16010,Kota Bharu,Kelantan,KTN
16100,Kota Bharu,Kelantan,KTN
16109,Kota Bharu,Kelantan,KTN
16150,Kota Bharu,Kelantan,KTN
17610,Kuala Balah,Kelantan,KTN
18000,Kuala Krai,Kelantan,KTN
18020,Kuala Krai,Kelantan,KTN
18050,Kuala Krai,Kelantan,KTN
18500,Machang,Kelantan,KTN
16400,Melor,Kelantan,KTN
17000,Pasir Mas,Kelantan,KTN
17007,Pasir Mas,Kelantan,KTN
17009,Pasir Mas,Kelantan,KTN
17010,Pasir Mas,Kelantan,KTN
17020,Pasir Mas,Kelantan,KTN
17030,Pasir Mas,Kelantan,KTN
17040,Pasir Mas,Kelantan,KTN
17050,Pasir Mas,Kelantan,KTN
17060,Pasir Mas,Kelantan,KTN
17070,Pasir Mas,Kelantan,KTN
16800,Pasir Puteh,Kelantan,KTN
16600,Pulai Chondong,Kelantan,KTN
17200,Rantau Panjang,Kelantan,KTN
16810,Selising,Kelantan,KTN
17500,Tanah Merah,Kelantan,KTN
17507,Tanah Merah,Kelantan,KTN
17509,Tanah Merah,Kelantan,KTN
17510,Tanah Merah,Kelantan,KTN
17520,Tanah Merah,Kelantan,KTN
17599,Tanah Merah,Kelantan,KTN
18400,Temangan,Kelantan,KTN
16080,Tumpat,Kelantan,KTN
16200,Tumpat,Kelantan,KTN
16210,Tumpat,Kelantan,KTN
16040,Wakaf Bharu,Kelantan,KTN
16250,Wakaf Bharu,Kelantan,KTN
16266,Wakaf Bharu,Kelantan,KTN
78000,Alor Gajah,Melaka,MLK
78009,Alor Gajah,Melaka,MLK
77100,Asahan,Melaka,MLK
77109,Asahan,Melaka,MLK
75450,Ayer Keroh,Melaka,MLK
77200,Bemban,Melaka,MLK
76100,Durian Tunggal,Melaka,MLK
76109,Durian Tunggal,Melaka,MLK
77000,Jasin,Melaka,MLK
77007,Jasin,Melaka,MLK
77008,Jasin,Melaka,MLK
77009,Jasin,Melaka,MLK
76200,Kem Trendak,Melaka,MLK
78200,Kuala Sungai Baru,Melaka,MLK
78100,Lubok China,Melaka,MLK
78300,Masjid Tanah,Melaka,MLK
78307,Masjid Tanah,Melaka,MLK
78309,Masjid Tanah,Melaka,MLK
75000,Melaka,Melaka,MLK
75050,Melaka,Melaka,MLK
75100,Melaka,Melaka,MLK
75150,Melaka,Melaka,MLK
75200,Melaka,Melaka,MLK
75250,Melaka,Melaka,MLK
75260,Melaka,Melaka,MLK
75300,Melaka,Melaka,MLK
75350,Melaka,Melaka,MLK
75400,Melaka,Melaka,MLK
75430,Melaka,Melaka,MLK
75460,Melaka,Melaka,MLK
76450,Melaka,Melaka,MLK
77300,Merlimau,Melaka,MLK
77500,Selandar,Melaka,MLK
77400,Sungai Rambai,Melaka,MLK
76300,Sungai Udang,Melaka,MLK
76400,Tanjong Kling,Melaka,MLK
76409,Tanjong Kling,Melaka,MLK
72100,Bahau,Negeri Sembilan,NSN
72107,Bahau,Negeri Sembilan,NSN
72109,Bahau,Negeri Sembilan,NSN
71760,Bandar Baru Enstek,Negeri Sembilan,NSN
72120,Bandar Seri Jempol,Negeri Sembilan,NSN
72127,Bandar Seri Jempol,Negeri Sembilan,NSN
72129,Bandar Seri Jempol,Negeri Sembilan,NSN
72200,Batu Kikir,Negeri Sembilan,NSN
72207,Batu Kikir,Negeri Sembilan,NSN
72209,Batu Kikir,Negeri Sembilan,NSN
73400,Gemas,Negeri Sembilan,NSN
73409,Gemas,Negeri Sembilan,NSN
73410,Gemas,Negeri Sembilan,NSN
73420,Gemas,Negeri Sembilan,NSN
73480,Gemas,Negeri Sembilan,NSN
73200,Gemencheh,Negeri Sembilan,NSN
73207,Gemencheh,Negeri Sembilan,NSN
73209,Gemencheh,Negeri Sembilan,NSN
73300,Gemencheh,Negeri Sembilan,NSN
73309,Gemencheh,Negeri Sembilan,NSN
73100,Johol,Negeri Sembilan,NSN
73109,Johol,Negeri Sembilan,NSN
71350,Kota,Negeri Sembilan,NSN
71359,Kota,Negeri Sembilan,NSN
71600,Kuala Klawang,Negeri Sembilan,NSN
71609,Kuala Klawang,Negeri Sembilan,NSN
71650,Kuala Klawang,Negeri Sembilan,NSN
71659,Kuala Klawang,Negeri Sembilan,NSN
72000,Kuala Pilah,Negeri Sembilan,NSN
72007,Kuala Pilah,Negeri Sembilan,NSN
72009,Kuala Pilah,Negeri Sembilan,NSN
72500,Kuala Pilah,Negeri Sembilan,NSN
72507,Kuala Pilah,Negeri Sembilan,NSN
72509,Kuala Pilah,Negeri Sembilan,NSN
71900,Labu,Negeri Sembilan,NSN
71907,Labu,Negeri Sembilan,NSN
71909,Labu,Negeri Sembilan,NSN
71150,Linggi,Negeri Sembilan,NSN
71159,Linggi,Negeri Sembilan,NSN
71700,Mantin,Negeri Sembilan,NSN
71707,Mantin,Negeri Sembilan,NSN
71709,Mantin,Negeri Sembilan,NSN
71750,Mantin,Negeri Sembilan,NSN
71759,Mantin,Negeri Sembilan,NSN
71800,Nilai,Negeri Sembilan,NSN
71807,Nilai,Negeri Sembilan,NSN
71809,Nilai,Negeri Sembilan,NSN
71850,Nilai,Negeri Sembilan,NSN
71000,Port Dickson,Negeri Sembilan,NSN
71007,Port Dickson,Negeri Sembilan,NSN
71009,Port Dickson,Negeri Sembilan,NSN
71010,Port Dickson,Negeri Sembilan,NSN
71960,Port Dickson,Negeri Sembilan,NSN
71999,Port Dickson,Negeri Sembilan,NSN
73430,Pusat Bandar Palong,Negeri Sembilan,NSN
73440,Pusat Bandar Palong,Negeri Sembilan,NSN
73450,Pusat Bandar Palong,Negeri Sembilan,NSN
73460,Pusat Bandar Palong,Negeri Sembilan,NSN
73470,Pusat Bandar Palong,Negeri Sembilan,NSN
71100,Rantau,Negeri Sembilan,NSN
71109,Rantau,Negeri Sembilan,NSN
71200,Rantau,Negeri Sembilan,NSN
71209,Rantau,Negeri Sembilan,NSN
71300,Rembau,Negeri Sembilan,NSN
71309,Rembau,Negeri Sembilan,NSN
71400,Rembau,Negeri Sembilan,NSN
71409,Rembau,Negeri Sembilan,NSN
73500,Rompin,Negeri Sembilan,NSN
73507,Rompin,Negeri Sembilan,NSN
73509,Rompin,Negeri Sembilan,NSN
70000,Seremban,Negeri Sembilan,NSN
70100,Seremban,Negeri Sembilan,NSN
70200,Seremban,Negeri Sembilan,NSN
70300,Seremban,Negeri Sembilan,NSN
70400,Seremban,Negeri Sembilan,NSN
70450,Seremban,Negeri Sembilan,NSN
70500,Seremban,Negeri Sembilan,NSN
70502,Seremban,Negeri Sembilan,NSN
70503,Seremban,Negeri Sembilan,NSN
70504,Seremban,Negeri Sembilan,NSN
70505,Seremban,Negeri Sembilan,NSN
70506,Seremban,Negeri Sembilan,NSN
70508,Seremban,Negeri Sembilan,NSN
70512,Seremban,Negeri Sembilan,NSN
70516,Seremban,Negeri Sembilan,NSN
70517,Seremban,Negeri Sembilan,NSN
70518,Seremban,Negeri Sembilan,NSN
70532,Seremban,Negeri Sembilan,NSN
70534,Seremban,Negeri Sembilan,NSN
70536,Seremban,Negeri Sembilan,NSN
70540,Seremban,Negeri Sembilan,NSN
70546,Seremban,Negeri Sembilan,NSN
70548,Seremban,Negeri Sembilan,NSN
70550,Seremban,Negeri Sembilan,NSN
70551,Seremban,Negeri Sembilan,NSN
70558,Seremban,Negeri Sembilan,NSN
70560,Seremban,Negeri Sembilan,NSN
70564,Seremban,Negeri Sembilan,NSN
70570,Seremban,Negeri Sembilan,NSN
70572,Seremban,Negeri Sembilan,NSN
70576,Seremban,Negeri Sembilan,NSN
70578,Seremban,Negeri Sembilan,NSN
70582,Seremban,Negeri Sembilan,NSN
70586,Seremban,Negeri Sembilan,NSN
70590,Seremban,Negeri Sembilan,NSN
70592,Seremban,Negeri Sembilan,NSN
70594,Seremban,Negeri Sembilan,NSN
70596,Seremban,Negeri Sembilan,NSN
70600,Seremban,Negeri Sembilan,NSN
70604,Seremban,Negeri Sembilan,NSN
70606,Seremban,Negeri Sembilan,NSN
70608,Seremban,Negeri Sembilan,NSN
70609,Seremban,Negeri Sembilan,NSN
70610,Seremban,Negeri Sembilan,NSN
70620,Seremban,Negeri Sembilan,NSN
70626,Seremban,Negeri Sembilan,NSN
70628,Seremban,Negeri Sembilan,NSN
70632,Seremban,Negeri Sembilan,NSN
70634,Seremban,Negeri Sembilan,NSN
70644,Seremban,Negeri Sembilan,NSN
70646,Seremban,Negeri Sembilan,NSN
70648,Seremban,Negeri Sembilan,NSN
70658,Seremban,Negeri Sembilan,NSN
70664,Seremban,Negeri Sembilan,NSN
70670,Seremban,Negeri Sembilan,NSN
70672,Seremban,Negeri Sembilan,NSN
70673,Seremban,Negeri Sembilan,NSN
70674,Seremban,Negeri Sembilan,NSN
70676,Seremban,Negeri Sembilan,NSN
70690,Seremban,Negeri Sembilan,NSN
70700,Seremban,Negeri Sembilan,NSN
70710,Seremban,Negeri Sembilan,NSN
70720,Seremban,Negeri Sembilan,NSN
70730,Seremban,Negeri Sembilan,NSN
70740,Seremban,Negeri Sembilan,NSN
70750,Seremban,Negeri Sembilan,NSN
70990,Seremban,Negeri Sembilan,NSN
71450,Seremban,Negeri Sembilan,NSN
71459,Seremban,Negeri Sembilan,NSN
71770,Seremban,Negeri Sembilan,NSN
71950,Seremban,Negeri Sembilan,NSN
71050,Si Rusa,Negeri Sembilan,NSN
71059,Si Rusa,Negeri Sembilan,NSN
71250,Si Rusa,Negeri Sembilan,NSN
71259,Si Rusa,Negeri Sembilan,NSN
72400,Simpang Durian,Negeri Sembilan,NSN
72409,Simpang Durian,Negeri Sembilan,NSN
72300,Simpang Pertang,Negeri Sembilan,NSN
72307,Simpang Pertang,Negeri Sembilan,NSN
72309,Simpang Pertang,Negeri Sembilan,NSN
73000,Tampin,Negeri Sembilan,NSN
73007,Tampin,Negeri Sembilan,NSN
73009,Tampin,Negeri Sembilan,NSN
71500,Tanjong Ipoh,Negeri Sembilan,NSN
71509,Tanjong Ipoh,Negeri Sembilan,NSN
71550,Tanjong Ipoh,Negeri Sembilan,NSN
71559,Tanjong Ipoh,Negeri Sembilan,NSN
26080,Balok,Pahang,PHG
26100,Balok,Pahang,PHG
26150,Balok,Pahang,PHG
26190,Balok,Pahang,PHG
26400,Bandar Pusat Jengka,Pahang,PHG
26410,Bandar Pusat Jengka,Pahang,PHG
26420,Bandar Pusat Jengka,Pahang,PHG
26430,Bandar Pusat Jengka,Pahang,PHG
26440,Bandar Pusat Jengka,Pahang,PHG
26450,Bandar Pusat Jengka,Pahang,PHG
26460,Bandar Pusat Jengka,Pahang,PHG
26485,Bandar Pusat Jengka,Pahang,PHG
26490,Bandar Pusat Jengka,Pahang,PHG
27080,Bandar Pusat Jengka,Pahang,PHG
26900,Bandar Tun Abdul Razak,Pahang,PHG
26999,Bandar Tun Abdul Razak,Pahang,PHG
27300,Benta,Pahang,PHG
27310,Benta,Pahang,PHG
28700,Bentong,Pahang,PHG
28707,Bentong,Pahang,PHG
28709,Bentong,Pahang,PHG
28730,Bentong,Pahang,PHG
28740,Bentong,Pahang,PHG
28750,Bentong,Pahang,PHG
39100,Brinchang,Pahang,PHG
49000,Bukit Fraser,Pahang,PHG
26050,Bukit Goh,Pahang,PHG
26090,Bukit Goh,Pahang,PHG
28100,Chenor,Pahang,PHG
26690,Chini,Pahang,PHG
27030,Damak,Pahang,PHG
27400,Dong,Pahang,PHG
26300,Gambang,Pahang,PHG
26310,Gambang,Pahang,PHG
26320,Gambang,Pahang,PHG
26330,Gambang,Pahang,PHG
26340,Gambang,Pahang,PHG
26350,Gambang,Pahang,PHG
26360,Gambang,Pahang,PHG
26370,Gambang,Pahang,PHG
69000,Genting Highlands,Pahang,PHG
26250,Jaya Gading,Pahang,PHG
27000,Jerantut,Pahang,PHG
27010,Jerantut,Pahang,PHG
27020,Jerantut,Pahang,PHG
27040,Jerantut,Pahang,PHG
27050,Jerantut,Pahang,PHG
27060,Jerantut,Pahang,PHG
27070,Jerantut,Pahang,PHG
27090,Jerantut,Pahang,PHG
27150,Jerantut,Pahang,PHG
28600,Karak,Pahang,PHG
28610,Karak,Pahang,PHG
28620,Karak,Pahang,PHG
28340,Kemayan,Pahang,PHG
28380,Kemayan,Pahang,PHG
28050,Kuala Krau,Pahang,PHG
27200,Kuala Lipis,Pahang,PHG
27207,Kuala Lipis,Pahang,PHG
27209,Kuala Lipis,Pahang,PHG
27210,Kuala Lipis,Pahang,PHG
26800,Kuala Rompin,Pahang,PHG
26810,Kuala Rompin,Pahang,PHG
26820,Kuala Rompin,Pahang,PHG
25000,Kuantan,Pahang,PHG
25020,Kuantan,Pahang,PHG
25040,Kuantan,Pahang,PHG
25050,Kuantan,Pahang,PHG
25100,Kuantan,Pahang,PHG
25150,Kuantan,Pahang,PHG
25200,Kuantan,Pahang,PHG
25250,Kuantan,Pahang,PHG
25300,Kuantan,Pahang,PHG
25320,Kuantan,Pahang,PHG
25350,Kuantan,Pahang,PHG
25500,Kuantan,Pahang,PHG
25502,Kuantan,Pahang,PHG
25503,Kuantan,Pahang,PHG
25504,Kuantan,Pahang,PHG
25505,Kuantan,Pahang,PHG
25506,Kuantan,Pahang,PHG
25508,Kuantan,Pahang,PHG
25509,Kuantan,Pahang,PHG
25512,Kuantan,Pahang,PHG
25514,Kuantan,Pahang,PHG
25516,Kuantan,Pahang,PHG
25517,Kuantan,Pahang,PHG
25518,Kuantan,Pahang,PHG
25520,Kuantan,Pahang,PHG
25524,Kuantan,Pahang,PHG
25529,Kuantan,Pahang,PHG
25532,Kuantan,Pahang,PHG
25534,Kuantan,Pahang,PHG
25536,Kuantan,Pahang,PHG
25538,Kuantan,Pahang,PHG
25540,Kuantan,Pahang,PHG
25546,Kuantan,Pahang,PHG
25548,Kuantan,Pahang,PHG
25550,Kuantan,Pahang,PHG
25551,Kuantan,Pahang,PHG
25552,Kuantan,Pahang,PHG
25556,Kuantan,Pahang,PHG
25558,Kuantan,Pahang,PHG
25560,Kuantan,Pahang,PHG
25564,Kuantan,Pahang,PHG
25570,Kuantan,Pahang,PHG
25576,Kuantan,Pahang,PHG
25578,Kuantan,Pahang,PHG
25582,Kuantan,Pahang,PHG
25584,Kuantan,Pahang,PHG
25586,Kuantan,Pahang,PHG
25590,Kuantan,Pahang,PHG
25592,Kuantan,Pahang,PHG
25594,Kuantan,Pahang,PHG
25596,Kuantan,Pahang,PHG
25598,Kuantan,Pahang,PHG
25600,Kuantan,Pahang,PHG
25604,Kuantan,Pahang,PHG
25606,Kuantan,Pahang,PHG
25608,Kuantan,Pahang,PHG
25609,Kuantan,Pahang,PHG
25610,Kuantan,Pahang,PHG
25612,Kuantan,Pahang,PHG
25614,Kuantan,Pahang,PHG
25620,Kuantan,Pahang,PHG
25622,Kuantan,Pahang,PHG
25626,Kuantan,Pahang,PHG
25628,Kuantan,Pahang,PHG
25630,Kuantan,Pahang,PHG
25632,Kuantan,Pahang,PHG
25644,Kuantan,Pahang,PHG
25646,Kuantan,Pahang,PHG
25648,Kuantan,Pahang,PHG
25656,Kuantan,Pahang,PHG
25660,Kuantan,Pahang,PHG
25661,Kuantan,Pahang,PHG
25662,Kuantan,Pahang,PHG
25670,Kuantan,Pahang,PHG
25672,Kuantan,Pahang,PHG
25673,Kuantan,Pahang,PHG
25674,Kuantan,Pahang,PHG
25676,Kuantan,Pahang,PHG
25690,Kuantan,Pahang,PHG
25700,Kuantan,Pahang,PHG
25710,Kuantan,Pahang,PHG
25720,Kuantan,Pahang,PHG
25730,Kuantan,Pahang,PHG
25740,Kuantan,Pahang,PHG
25750,Kuantan,Pahang,PHG
25990,Kuantan,Pahang,PHG
26000,Kuantan,Pahang,PHG
26010,Kuantan,Pahang,PHG
26040,Kuantan,Pahang,PHG
26060,Kuantan,Pahang,PHG
26070,Kuantan,Pahang,PHG
26140,Kuantan,Pahang,PHG
26180,Kuantan,Pahang,PHG
28500,Lanchang,Pahang,PHG
28800,Lurah Bilut,Pahang,PHG
26500,Maran,Pahang,PHG
28400,Mentakab,Pahang,PHG
28407,Mentakab,Pahang,PHG
28409,Mentakab,Pahang,PHG
26700,Muadzam Shah,Pahang,PHG
27100,Padang Tengku,Pahang,PHG
26600,Pekan,Pahang,PHG
26607,Pekan,Pahang,PHG
26609,Pekan,Pahang,PHG
26610,Pekan,Pahang,PHG
26620,Pekan,Pahang,PHG
26630,Pekan,Pahang,PHG
26640,Pekan,Pahang,PHG
26650,Pekan,Pahang,PHG
26660,Pekan,Pahang,PHG
26680,Pekan,Pahang,PHG
27600,Raub,Pahang,PHG
27607,Raub,Pahang,PHG
27609,Raub,Pahang,PHG
27610,Raub,Pahang,PHG
27620,Raub,Pahang,PHG
27630,Raub,Pahang,PHG
27670,Raub,Pahang,PHG
39200,Ringlet,Pahang,PHG
27660,Sega,Pahang,PHG
27650,Sungai Koyan,Pahang,PHG
26200,Sungai Lembing,Pahang,PHG
27500,Sungai Ruan,Pahang,PHG
39000,Tanah Rata,Pahang,PHG
39007,Tanah Rata,Pahang,PHG
39009,Tanah Rata,Pahang,PHG
39010,Tanah Rata,Pahang,PHG
28000,Temerloh,Pahang,PHG
28007,Temerloh,Pahang,PHG
28009,Temerloh,Pahang,PHG
28010,Temerloh,Pahang,PHG
28020,Temerloh,Pahang,PHG
28030,Temerloh,Pahang,PHG
28040,Temerloh,Pahang,PHG
28200,Triang,Pahang,PHG
28300,Triang,Pahang,PHG
28310,Triang,Pahang,PHG
28320,Triang,Pahang,PHG
28330,Triang,Pahang,PHG
28350,Triang,Pahang,PHG
32400,Ayer Tawar,Perak,PRK
36100,Bagan Datoh,Perak,PRK
34300,Bagan Serai,Perak,PRK
34310,Bagan Serai,Perak,PRK
32610,Bandar Seri Iskandar,Perak,PRK
31000,Batu Gajah,Perak,PRK
31007,Batu Gajah,Perak,PRK
31009,Batu Gajah,Perak,PRK
34500,Batu Kurau,Perak,PRK
34510,Batu Kurau,Perak,PRK
34520,Batu Kurau,Perak,PRK
35950,Behrang Stesen,Perak,PRK
35500,Bidor,Perak,PRK
32600,Bota,Perak,PRK
32700,Bruas,Perak,PRK
34850,Changkat Jering,Perak,PRK
32500,Changkat Keruing,Perak,PRK
31200,Chemor,Perak,PRK
35300,Chenderiang,Perak,PRK
36600,Chenderong Balai,Perak,PRK
36750,Chikus,Perak,PRK
33600,Enggor,Perak,PRK
33300,Gerik,Perak,PRK
33310,Gerik,Perak,PRK
33320,Gerik,Perak,PRK
31600,Gopeng,Perak,PRK
31610,Gopeng,Perak,PRK
36400,Hutan Melintang,Perak,PRK
33200,Intan,Perak,PRK
30000,Ipoh,Perak,PRK
30010,Ipoh,Perak,PRK
30020,Ipoh,Perak,PRK
30100,Ipoh,Perak,PRK
30200,Ipoh,Perak,PRK
30205,Ipoh,Perak,PRK
30250,Ipoh,Perak,PRK
30300,Ipoh,Perak,PRK
30350,Ipoh,Perak,PRK
30400,Ipoh,Perak,PRK
30450,Ipoh,Perak,PRK
30500,Ipoh,Perak,PRK
30502,Ipoh,Perak,PRK
30503,Ipoh,Perak,PRK
30504,Ipoh,Perak,PRK
30505,Ipoh,Perak,PRK
30506,Ipoh,Perak,PRK
30508,Ipoh,Perak,PRK
30510,Ipoh,Perak,PRK
30512,Ipoh,Perak,PRK
30516,Ipoh,Perak,PRK
30517,Ipoh,Perak,PRK
30518,Ipoh,Perak,PRK
30519,Ipoh,Perak,PRK
30520,Ipoh,Perak,PRK
30524,Ipoh,Perak,PRK
30532,Ipoh,Perak,PRK
30534,Ipoh,Perak,PRK
30536,Ipoh,Perak,PRK
30540,Ipoh,Perak,PRK
30542,Ipoh,Perak,PRK
30546,Ipoh,Perak,PRK
30548,Ipoh,Perak,PRK
30550,Ipoh,Perak,PRK
30551,Ipoh,Perak,PRK
30552,Ipoh,Perak,PRK
30554,Ipoh,Perak,PRK
30556,Ipoh,Perak,PRK
30560,Ipoh,Perak,PRK
30564,Ipoh,Perak,PRK
30570,Ipoh,Perak,PRK
30576,Ipoh,Perak,PRK
30580,Ipoh,Perak,PRK
30582,Ipoh,Perak,PRK
30586,Ipoh,Perak,PRK
30590,Ipoh,Perak,PRK
30592,Ipoh,Perak,PRK
30594,Ipoh,Perak,PRK
30596,Ipoh,Perak,PRK
30600,Ipoh,Perak,PRK
30604,Ipoh,Perak,PRK
30606,Ipoh,Perak,PRK
30609,Ipoh,Perak,PRK
30610,Ipoh,Perak,PRK
30612,Ipoh,Perak,PRK
30614,Ipoh,Perak,PRK
30620,Ipoh,Perak,PRK
30621,Ipoh,Perak,PRK
30622,Ipoh,Perak,PRK
30626,Ipoh,Perak,PRK
30628,Ipoh,Perak,PRK
30630,Ipoh,Perak,PRK
30632,Ipoh,Perak,PRK
30634,Ipoh,Perak,PRK
30644,Ipoh,Perak,PRK
30646,Ipoh,Perak,PRK
30648,Ipoh,Perak,PRK
30656,Ipoh,Perak,PRK
30658,Ipoh,Perak,PRK
30660,Ipoh,Perak,PRK
30661,Ipoh,Perak,PRK
30662,Ipoh,Perak,PRK
30664,Ipoh,Perak,PRK
30668,Ipoh,Perak,PRK
30670,Ipoh,Perak,PRK
30673,Ipoh,Perak,PRK
30674,Ipoh,Perak,PRK
30676,Ipoh,Perak,PRK
30682,Ipoh,Perak,PRK
30690,Ipoh,Perak,PRK
30700,Ipoh,Perak,PRK
30710,Ipoh,Perak,PRK
30720,Ipoh,Perak,PRK
30730,Ipoh,Perak,PRK
30740,Ipoh,Perak,PRK
30750,Ipoh,Perak,PRK
30760,Ipoh,Perak,PRK
30770,Ipoh,Perak,PRK
30780,Ipoh,Perak,PRK
30790,Ipoh,Perak,PRK
30800,Ipoh,Perak,PRK
30810,Ipoh,Perak,PRK
30820,Ipoh,Perak,PRK
30830,Ipoh,Perak,PRK
30840,Ipoh,Perak,PRK
30900,Ipoh,Perak,PRK
30902,Ipoh,Perak,PRK
30904,Ipoh,Perak,PRK
30906,Ipoh,Perak,PRK
30908,Ipoh,Perak,PRK
30910,Ipoh,Perak,PRK
30912,Ipoh,Perak,PRK
30988,Ipoh,Perak,PRK
30990,Ipoh,Perak,PRK
31350,Ipoh,Perak,PRK
31400,Ipoh,Perak,PRK
31407,Ipoh,Perak,PRK
31409,Ipoh,Perak,PRK
31450,Ipoh,Perak,PRK
31500,Ipoh,Perak,PRK
31650,Ipoh,Perak,PRK
31672,Ipoh,Perak,PRK
31850,Jeram,Perak,PRK
31900,Kampar,Perak,PRK
31907,Kampar,Perak,PRK
31909,Kampar,Perak,PRK
31910,Kampar,Perak,PRK
31920,Kampar,Perak,PRK
31950,Kampar,Perak,PRK
36800,Kampung Gajah,Perak,PRK
36810,Kampung Gajah,Perak,PRK
31300,Kampung Kepayang,Perak,PRK
34600,Kamunting,Perak,PRK
33000,Kuala Kangsar,Perak,PRK
33007,Kuala Kangsar,Perak,PRK
33009,Kuala Kangsar,Perak,PRK
33010,Kuala Kangsar,Perak,PRK
33020,Kuala Kangsar,Perak,PRK
33030,Kuala Kangsar,Perak,PRK
33040,Kuala Kangsar,Perak,PRK
34350,Kuala Kurau,Perak,PRK
34650,Kuala Sepetang,Perak,PRK
32900,Lambor Kanan,Perak,PRK
32999,Lambor Kanan,Perak,PRK
36700,Langkap,Perak,PRK
33400,Lenggong,Perak,PRK
33410,Lenggong,Perak,PRK
33420,Lenggong,Perak,PRK
32200,Lumut,Perak,PRK
31700,Malim Nawar,Perak,PRK
33800,Manong,Perak,PRK
34750,Matang,Perak,PRK
33700,Padang Rengas,Perak,PRK
32300,Pangkor,Perak,PRK
34900,Pantai Remis,Perak,PRK
34910,Pantai Remis,Perak,PRK
32800,Parit,Perak,PRK
32810,Parit,Perak,PRK
34200,Parit Buntar,Perak,PRK
33100,Pengkalan Hulu,Perak,PRK
31550,Pusing,Perak,PRK
31560,Pusing,Perak,PRK
34140,Rantau Panjang,Perak,PRK
33500,Sauk,Perak,PRK
34100,Selama,Perak,PRK
34120,Selama,Perak,PRK
34130,Selama,Perak,PRK
36200,Selekoh,Perak,PRK
36207,Selekoh,Perak,PRK
36209,Selekoh,Perak,PRK
32040,Seri Manjung,Perak,PRK
32050,Seri Manjung,Perak,PRK
34700,Simpang,Perak,PRK
34400,Simpang Ampat Semanggol,Perak,PRK
32000,Sitiawan,Perak,PRK
32010,Sitiawan,Perak,PRK
32020,Sitiawan,Perak,PRK
35800,Slim River,Perak,PRK
35820,Slim River,Perak,PRK
31050,Sungai Siput,Perak,PRK
31100,Sungai Siput,Perak,PRK
31120,Sungai Siput,Perak,PRK
36300,Sungai Sumun,Perak,PRK
36307,Sungai Sumun,Perak,PRK
36309,Sungai Sumun,Perak,PRK
35600,Sungkai,Perak,PRK
32100,TLDM Lumut,Perak,PRK
34000,Taiping,Perak,PRK
34007,Taiping,Perak,PRK
34008,Taiping,Perak,PRK
34009,Taiping,Perak,PRK
34010,Taiping,Perak,PRK
34020,Taiping,Perak,PRK
34030,Taiping,Perak,PRK
35900,Tanjong Malim,Perak,PRK
35907,Tanjong Malim,Perak,PRK
35909,Tanjong Malim,Perak,PRK
35910,Tanjong Malim,Perak,PRK
34250,Tanjong Piandang,Perak,PRK
31250,Tanjong Rambutan,Perak,PRK
31800,Tanjong Tualang,Perak,PRK
35000,Tapah,Perak,PRK
35007,Tapah,Perak,PRK
35009,Tapah,Perak,PRK
35400,Tapah Road,Perak,PRK
36000,Teluk Intan,Perak,PRK
36007,Teluk Intan,Perak,PRK
36008,Teluk Intan,Perak,PRK
36009,Teluk Intan,Perak,PRK
36010,Teluk Intan,Perak,PRK
36020,Teluk Intan,Perak,PRK
36030,Teluk Intan,Perak,PRK
36110,Teluk Intan,Perak,PRK
35350,Temoh,Perak,PRK
35700,Trolak,Perak,PRK
34800,Trong,Perak,PRK
31750,Tronoh,Perak,PRK
36500,Ulu Bernam,Perak,PRK
31150,Ulu Kinta,Perak,PRK
31199,Ulu Kinta,Perak,PRK
02600,Arau,Perlis,PLS
02607,Arau,Perlis,PLS
02609,Arau,Perlis,PLS
02200,Kaki Bukit,Perlis,PLS
01000,Kangar,Perlis,PLS
01007,Kangar,Perlis,PLS
01009,Kangar,Perlis,PLS
01500,Kangar,Perlis,PLS
01502,Kangar,Perlis,PLS
01503,Kangar,Perlis,PLS
01504,Kangar,Perlis,PLS
01505,Kangar,Perlis,PLS
01506,Kangar,Perlis,PLS
01508,Kangar,Perlis,PLS
01512,Kangar,Perlis,PLS
01514,Kangar,Perlis,PLS
01516,Kangar,Perlis,PLS
01517,Kangar,Perlis,PLS
01518,Kangar,Perlis,PLS
01524,Kangar,Perlis,PLS
01529,Kangar,Perlis,PLS
01532,Kangar,Perlis,PLS
01538,Kangar,Perlis,PLS
01540,Kangar,Perlis,PLS
01546,Kangar,Perlis,PLS
01550,Kangar,Perlis,PLS
01551,Kangar,Perlis,PLS
01556,Kangar,Perlis,PLS
01560,Kangar,Perlis,PLS
01564,Kangar,Perlis,PLS
01570,Kangar,Perlis,PLS
01572,Kangar,Perlis,PLS
01576,Kangar,Perlis,PLS
01578,Kangar,Perlis,PLS
01582,Kangar,Perlis,PLS
01586,Kangar,Perlis,PLS
01590,Kangar,Perlis,PLS
01592,Kangar,Perlis,PLS
01594,Kangar,Perlis,PLS
01596,Kangar,Perlis,PLS
01598,Kangar,Perlis,PLS
01600,Kangar,Perlis,PLS
01604,Kangar,Perlis,PLS
01606,Kangar,Perlis,PLS
01608,Kangar,Perlis,PLS
01609,Kangar,Perlis,PLS
01610,Kangar,Perlis,PLS
01612,Kangar,Perlis,PLS
01614,Kangar,Perlis,PLS
01620,Kangar,Perlis,PLS
01622,Kangar,Perlis,PLS
01626,Kangar,Perlis,PLS
01628,Kangar,Perlis,PLS
01630,Kangar,Perlis,PLS
01632,Kangar,Perlis,PLS
01634,Kangar,Perlis,PLS
01644,Kangar,Perlis,PLS
01646,Kangar,Perlis,PLS
01648,Kangar,Perlis,PLS
01660,Kangar,Perlis,PLS
01664,Kangar,Perlis,PLS
01670,Kangar,Perlis,PLS
01672,Kangar,Perlis,PLS
01673,Kangar,Perlis,PLS
01674,Kangar,Perlis,PLS
01676,Kangar,Perlis,PLS
01680,Kangar,Perlis,PLS
01694,Kangar,Perlis,PLS
02400,Kangar,Perlis,PLS
02450,Kangar,Perlis,PLS
02500,Kangar,Perlis,PLS
02000,Kuala Perlis,Perlis,PLS
02100,Padang Besar,Perlis,PLS
02700,Simpang Ampat,Perlis,PLS
02707,Simpang Ampat,Perlis,PLS
02709,Simpang Ampat,Perlis,PLS
02800,Simpang Ampat,Perlis,PLS
11500,Ayer Itam,Pulau Pinang,PNG
11000,Balik Pulau,Pulau Pinang,PNG
11010,Balik Pulau,Pulau Pinang,PNG
11020,Balik Pulau,Pulau Pinang,PNG
11100,Batu Ferringhi,Pulau Pinang,PNG
11960,Batu Maung,Pulau Pinang,PNG
11900,Bayan Lepas,Pulau Pinang,PNG
11910,Bayan Lepas,Pulau Pinang,PNG
11920,Bayan Lepas,Pulau Pinang,PNG
11950,Bayan Lepas,Pulau Pinang,PNG
14000,Bukit Mertajam,Pulau Pinang,PNG
14007,Bukit Mertajam,Pulau Pinang,PNG
14009,Bukit Mertajam,Pulau Pinang,PNG
14020,Bukit Mertajam,Pulau Pinang,PNG
12000,Butterworth,Pulau Pinang,PNG
12100,Butterworth,Pulau Pinang,PNG
12200,Butterworth,Pulau Pinang,PNG
12300,Butterworth,Pulau Pinang,PNG
12700,Butterworth,Pulau Pinang,PNG
12710,Butterworth,Pulau Pinang,PNG
12720,Butterworth,Pulau Pinang,PNG
12990,Butterworth,Pulau Pinang,PNG
13000,Butterworth,Pulau Pinang,PNG
13009,Butterworth,Pulau Pinang,PNG
13020,Butterworth,Pulau Pinang,PNG
13050,Butterworth,Pulau Pinang,PNG
13400,Butterworth,Pulau Pinang,PNG
13409,Butterworth,Pulau Pinang,PNG
13800,Butterworth,Pulau Pinang,PNG
11700,Gelugor,Pulau Pinang,PNG
11600,Jelutong,Pulau Pinang,PNG
11609,Jelutong,Pulau Pinang,PNG
13200,Kepala Batas,Pulau Pinang,PNG
13210,Kepala Batas,Pulau Pinang,PNG
13220,Kepala Batas,Pulau Pinang,PNG
14400,Kubang Semang,Pulau Pinang,PNG
14300,Nibong Tebal,Pulau Pinang,PNG
14310,Nibong Tebal,Pulau Pinang,PNG
14320,Nibong Tebal,Pulau Pinang,PNG
13100,Penaga,Pulau Pinang,PNG
13110,Penaga,Pulau Pinang,PNG
11300,Penang Hill,Pulau Pinang,PNG
13600,Perai,Pulau Pinang,PNG
13700,Perai,Pulau Pinang,PNG
13500,Permatang Pauh,Pulau Pinang,PNG
10000,Pulau Pinang,Pulau Pinang,PNG
10050,Pulau Pinang,Pulau Pinang,PNG
10100,Pulau Pinang,Pulau Pinang,PNG
10150,Pulau Pinang,Pulau Pinang,PNG
10200,Pulau Pinang,Pulau Pinang,PNG
10250,Pulau Pinang,Pulau Pinang,PNG
10300,Pulau Pinang,Pulau Pinang,PNG
10350,Pulau Pinang,Pulau Pinang,PNG
10400,Pulau Pinang,Pulau Pinang,PNG
10450,Pulau Pinang,Pulau Pinang,PNG
10460,Pulau Pinang,Pulau Pinang,PNG
10470,Pulau Pinang,Pulau Pinang,PNG
10500,Pulau Pinang,Pulau Pinang,PNG
10502,Pulau Pinang,Pulau Pinang,PNG
10503,Pulau Pinang,Pulau Pinang,PNG
10504,Pulau Pinang,Pulau Pinang,PNG
10505,Pulau Pinang,Pulau Pinang,PNG
10506,Pulau Pinang,Pulau Pinang,PNG
10508,Pulau Pinang,Pulau Pinang,PNG
10512,Pulau Pinang,Pulau Pinang,PNG
10514,Pulau Pinang,Pulau Pinang,PNG
10516,Pulau Pinang,Pulau Pinang,PNG
10518,Pulau Pinang,Pulau Pinang,PNG
10524,Pulau Pinang,Pulau Pinang,PNG
10534,Pulau Pinang,Pulau Pinang,PNG
10538,Pulau Pinang,Pulau Pinang,PNG
10540,Pulau Pinang,Pulau Pinang,PNG
10542,Pulau Pinang,Pulau Pinang,PNG
10546,Pulau Pinang,Pulau Pinang,PNG
10550,Pulau Pinang,Pulau Pinang,PNG
10551,Pulau Pinang,Pulau Pinang,PNG
10552,Pulau Pinang,Pulau Pinang,PNG
10558,Pulau Pinang,Pulau Pinang,PNG
10560,Pulau Pinang,Pulau Pinang,PNG
10564,Pulau Pinang,Pulau Pinang,PNG
10566,Pulau Pinang,Pulau Pinang,PNG
10570,Pulau Pinang,Pulau Pinang,PNG
10576,Pulau Pinang,Pulau Pinang,PNG
10578,Pulau Pinang,Pulau Pinang,PNG
10582,Pulau Pinang,Pulau Pinang,PNG
10590,Pulau Pinang,Pulau Pinang,PNG
10592,Pulau Pinang,Pulau Pinang,PNG
10593,Pulau Pinang,Pulau Pinang,PNG
10594,Pulau Pinang,Pulau Pinang,PNG
10596,Pulau Pinang,Pulau Pinang,PNG
10600,Pulau Pinang,Pulau Pinang,PNG
10604,Pulau Pinang,Pulau Pinang,PNG
10609,Pulau Pinang,Pulau Pinang,PNG
10610,Pulau Pinang,Pulau Pinang,PNG
10612,Pulau Pinang,Pulau Pinang,PNG
10620,Pulau Pinang,Pulau Pinang,PNG
10622,Pulau Pinang,Pulau Pinang,PNG
10626,Pulau Pinang,Pulau Pinang,PNG
10628,Pulau Pinang,Pulau Pinang,PNG
10634,Pulau Pinang,Pulau Pinang,PNG
10646,Pulau Pinang,Pulau Pinang,PNG
10648,Pulau Pinang,Pulau Pinang,PNG
10660,Pulau Pinang,Pulau Pinang,PNG
10661,Pulau Pinang,Pulau Pinang,PNG
10662,Pulau Pinang,Pulau Pinang,PNG
10670,Pulau Pinang,Pulau Pinang,PNG
10672,Pulau Pinang,Pulau Pinang,PNG
10673,Pulau Pinang,Pulau Pinang,PNG
10674,Pulau Pinang,Pulau Pinang,PNG
10676,Pulau Pinang,Pulau Pinang,PNG
10690,Pulau Pinang,Pulau Pinang,PNG
10710,Pulau Pinang,Pulau Pinang,PNG
10720,Pulau Pinang,Pulau Pinang,PNG
10730,Pulau Pinang,Pulau Pinang,PNG
10740,Pulau Pinang,Pulau Pinang,PNG
10750,Pulau Pinang,Pulau Pinang,PNG
10760,Pulau Pinang,Pulau Pinang,PNG
10770,Pulau Pinang,Pulau Pinang,PNG
10780,Pulau Pinang,Pulau Pinang,PNG
10790,Pulau Pinang,Pulau Pinang,PNG
10800,Pulau Pinang,Pulau Pinang,PNG
10810,Pulau Pinang,Pulau Pinang,PNG
10820,Pulau Pinang,Pulau Pinang,PNG
10830,Pulau Pinang,Pulau Pinang,PNG
10840,Pulau Pinang,Pulau Pinang,PNG
10850,Pulau Pinang,Pulau Pinang,PNG
10910,Pulau Pinang,Pulau Pinang,PNG
10920,Pulau Pinang,Pulau Pinang,PNG
10990,Pulau Pinang,Pulau Pinang,PNG
11050,Pulau Pinang,Pulau Pinang,PNG
11060,Pulau Pinang,Pulau Pinang,PNG
11400,Pulau Pinang,Pulau Pinang,PNG
11409,Pulau Pinang,Pulau Pinang,PNG
14100,Simpang Ampat,Pulau Pinang,PNG
14101,Simpang Ampat,Pulau Pinang,PNG
14110,Simpang Ampat,Pulau Pinang,PNG
14120,Simpang Ampat,Pulau Pinang,PNG
14200,Sungai Jawi,Pulau Pinang,PNG
11200,Tanjong Bungah,Pulau Pinang,PNG
13300,Tasek Gelugor,Pulau Pinang,PNG
13310,Tasek Gelugor,Pulau Pinang,PNG
11800,Usm Pulau Pinang,Pulau Pinang,PNG
89800,Beaufort,Sabah,SBH
89807,Beaufort,Sabah,SBH
89808,Beaufort,Sabah,SBH
89809,Beaufort,Sabah,SBH
90100,Beluran,Sabah,SBH
90107,Beluran,Sabah,SBH
90109,Beluran,Sabah,SBH
88700,Beverly,Sabah,SBH
89260,Beverly,Sabah,SBH
89700,Bongawan,Sabah,SBH
89707,Bongawan,Sabah,SBH
89708,Bongawan,Sabah,SBH
89709,Bongawan,Sabah,SBH
88857,Inanam,Sabah,SBH
89000,Keningau,Sabah,SBH
89007,Keningau,Sabah,SBH
89008,Keningau,Sabah,SBH
89009,Keningau,Sabah,SBH
89150,Kota Belud,Sabah,SBH
89157,Kota Belud,Sabah,SBH
89158,Kota Belud,Sabah,SBH
89159,Kota Belud,Sabah,SBH
88000,Kota Kinabalu,Sabah,SBH
88100,Kota Kinabalu,Sabah,SBH
88110,Kota Kinabalu,Sabah,SBH
88150,Kota Kinabalu,Sabah,SBH
88200,Kota Kinabalu,Sabah,SBH
88220,Kota Kinabalu,Sabah,SBH
88300,Kota Kinabalu,Sabah,SBH
88400,Kota Kinabalu,Sabah,SBH
88450,Kota Kinabalu,Sabah,SBH
88458,Kota Kinabalu,Sabah,SBH
88460,Kota Kinabalu,Sabah,SBH
88500,Kota Kinabalu,Sabah,SBH
88502,Kota Kinabalu,Sabah,SBH
88504,Kota Kinabalu,Sabah,SBH
88505,Kota Kinabalu,Sabah,SBH
88506,Kota Kinabalu,Sabah,SBH
88508,Kota Kinabalu,Sabah,SBH
88510,Kota Kinabalu,Sabah,SBH
88512,Kota Kinabalu,Sabah,SBH
88514,Kota Kinabalu,Sabah,SBH
88516,Kota Kinabalu,Sabah,SBH
88518,Kota Kinabalu,Sabah,SBH
88520,Kota Kinabalu,Sabah,SBH
88526,Kota Kinabalu,Sabah,SBH
88527,Kota Kinabalu,Sabah,SBH
88532,Kota Kinabalu,Sabah,SBH
88534,Kota Kinabalu,Sabah,SBH
88538,Kota Kinabalu,Sabah,SBH
88540,Kota Kinabalu,Sabah,SBH
88546,Kota Kinabalu,Sabah,SBH
88550,Kota Kinabalu,Sabah,SBH
88551,Kota Kinabalu,Sabah,SBH
88552,Kota Kinabalu,Sabah,SBH
88554,Kota Kinabalu,Sabah,SBH
88556,Kota Kinabalu,Sabah,SBH
88558,Kota Kinabalu,Sabah,SBH
88560,Kota Kinabalu,Sabah,SBH
88562,Kota Kinabalu,Sabah,SBH
88564,Kota Kinabalu,Sabah,SBH
88566,Kota Kinabalu,Sabah,SBH
88568,Kota Kinabalu,Sabah,SBH
88570,Kota Kinabalu,Sabah,SBH
88572,Kota Kinabalu,Sabah,SBH
88576,Kota Kinabalu,Sabah,SBH
88580,Kota Kinabalu,Sabah,SBH
88582,Kota Kinabalu,Sabah,SBH
88586,Kota Kinabalu,Sabah,SBH
88590,Kota Kinabalu,Sabah,SBH
88592,Kota Kinabalu,Sabah,SBH
88594,Kota Kinabalu,Sabah,SBH
88596,Kota Kinabalu,Sabah,SBH
88598,Kota Kinabalu,Sabah,SBH
88600,Kota Kinabalu,Sabah,SBH
88602,Kota Kinabalu,Sabah,SBH
88604,Kota Kinabalu,Sabah,SBH
88606,Kota Kinabalu,Sabah,SBH
88608,Kota Kinabalu,Sabah,SBH
88609,Kota Kinabalu,Sabah,SBH
88610,Kota Kinabalu,Sabah,SBH
88612,Kota Kinabalu,Sabah,SBH
88614,Kota Kinabalu,Sabah,SBH
88617,Kota Kinabalu,Sabah,SBH
88618,Kota Kinabalu,Sabah,SBH
88620,Kota Kinabalu,Sabah,SBH
88621,Kota Kinabalu,Sabah,SBH
88622,Kota Kinabalu,Sabah,SBH
88624,Kota Kinabalu,Sabah,SBH
88626,Kota Kinabalu,Sabah,SBH
88628,Kota Kinabalu,Sabah,SBH
88630,Kota Kinabalu,Sabah,SBH
88632,Kota Kinabalu,Sabah,SBH
88634,Kota Kinabalu,Sabah,SBH
88644,Kota Kinabalu,Sabah,SBH
88646,Kota Kinabalu,Sabah,SBH
88648,Kota Kinabalu,Sabah,SBH
88656,Kota Kinabalu,Sabah,SBH
88658,Kota Kinabalu,Sabah,SBH
88660,Kota Kinabalu,Sabah,SBH
88661,Kota Kinabalu,Sabah,SBH
88662,Kota Kinabalu,Sabah,SBH
88670,Kota Kinabalu,Sabah,SBH
88672,Kota Kinabalu,Sabah,SBH
88673,Kota Kinabalu,Sabah,SBH
88675,Kota Kinabalu,Sabah,SBH
88676,Kota Kinabalu,Sabah,SBH
88680,Kota Kinabalu,Sabah,SBH
88690,Kota Kinabalu,Sabah,SBH
88740,Kota Kinabalu,Sabah,SBH
88757,Kota Kinabalu,Sabah,SBH
88758,Kota Kinabalu,Sabah,SBH
88759,Kota Kinabalu,Sabah,SBH
88760,Kota Kinabalu,Sabah,SBH
88761,Kota Kinabalu,Sabah,SBH
88762,Kota Kinabalu,Sabah,SBH
88763,Kota Kinabalu,Sabah,SBH
88764,Kota Kinabalu,Sabah,SBH
88765,Kota Kinabalu,Sabah,SBH
88766,Kota Kinabalu,Sabah,SBH
88767,Kota Kinabalu,Sabah,SBH
88768,Kota Kinabalu,Sabah,SBH
88769,Kota Kinabalu,Sabah,SBH
88770,Kota Kinabalu,Sabah,SBH
88771,Kota Kinabalu,Sabah,SBH
88772,Kota Kinabalu,Sabah,SBH
88773,Kota Kinabalu,Sabah,SBH
88774,Kota Kinabalu,Sabah,SBH
88775,Kota Kinabalu,Sabah,SBH
88776,Kota Kinabalu,Sabah,SBH
88777,Kota Kinabalu,Sabah,SBH
88778,Kota Kinabalu,Sabah,SBH
88779,Kota Kinabalu,Sabah,SBH
88780,Kota Kinabalu,Sabah,SBH
88781,Kota Kinabalu,Sabah,SBH
88782,Kota Kinabalu,Sabah,SBH
88783,Kota Kinabalu,Sabah,SBH
88784,Kota Kinabalu,Sabah,SBH
88785,Kota Kinabalu,Sabah,SBH
88786,Kota Kinabalu,Sabah,SBH
88787,Kota Kinabalu,Sabah,SBH
88788,Kota Kinabalu,Sabah,SBH
88789,Kota Kinabalu,Sabah,SBH
88790,Kota Kinabalu,Sabah,SBH
88800,Kota Kinabalu,Sabah,SBH
88801,Kota Kinabalu,Sabah,SBH
88802,Kota Kinabalu,Sabah,SBH
88803,Kota Kinabalu,Sabah,SBH
88804,Kota Kinabalu,Sabah,SBH
88805,Kota Kinabalu,Sabah,SBH
88806,Kota Kinabalu,Sabah,SBH
88807,Kota Kinabalu,Sabah,SBH
88808,Kota Kinabalu,Sabah,SBH
88809,Kota Kinabalu,Sabah,SBH
88810,Kota Kinabalu,Sabah,SBH
88811,Kota Kinabalu,Sabah,SBH
88812,Kota Kinabalu,Sabah,SBH
88813,Kota Kinabalu,Sabah,SBH
88814,Kota Kinabalu,Sabah,SBH
88815,Kota Kinabalu,Sabah,SBH
88816,Kota Kinabalu,Sabah,SBH
88817,Kota Kinabalu,Sabah,SBH
88818,Kota Kinabalu,Sabah,SBH
88819,Kota Kinabalu,Sabah,SBH
88820,Kota Kinabalu,Sabah,SBH
88821,Kota Kinabalu,Sabah,SBH
88822,Kota Kinabalu,Sabah,SBH
88823,Kota Kinabalu,Sabah,SBH
88824,Kota Kinabalu,Sabah,SBH
88825,Kota Kinabalu,Sabah,SBH
88826,Kota Kinabalu,Sabah,SBH
88827,Kota Kinabalu,Sabah,SBH
88828,Kota Kinabalu,Sabah,SBH
88829,Kota Kinabalu,Sabah,SBH
88830,Kota Kinabalu,Sabah,SBH
88831,Kota Kinabalu,Sabah,SBH
88832,Kota Kinabalu,Sabah,SBH
88833,Kota Kinabalu,Sabah,SBH
88834,Kota Kinabalu,Sabah,SBH
88835,Kota Kinabalu,Sabah,SBH
88836,Kota Kinabalu,Sabah,SBH
88837,Kota Kinabalu,Sabah,SBH
88838,Kota Kinabalu,Sabah,SBH
88839,Kota Kinabalu,Sabah,SBH
88840,Kota Kinabalu,Sabah,SBH
88841,Kota Kinabalu,Sabah,SBH
88842,Kota Kinabalu,Sabah,SBH
88843,Kota Kinabalu,Sabah,SBH
88844,Kota Kinabalu,Sabah,SBH
88845,Kota Kinabalu,Sabah,SBH
88846,Kota Kinabalu,Sabah,SBH
88847,Kota Kinabalu,Sabah,SBH
88848,Kota Kinabalu,Sabah,SBH
88849,Kota Kinabalu,Sabah,SBH
88850,Kota Kinabalu,Sabah,SBH
88851,Kota Kinabalu,Sabah,SBH
88852,Kota Kinabalu,Sabah,SBH
88853,Kota Kinabalu,Sabah,SBH
88854,Kota Kinabalu,Sabah,SBH
88855,Kota Kinabalu,Sabah,SBH
88860,Kota Kinabalu,Sabah,SBH
88861,Kota Kinabalu,Sabah,SBH
88862,Kota Kinabalu,Sabah,SBH
88863,Kota Kinabalu,Sabah,SBH
88865,Kota Kinabalu,Sabah,SBH
88866,Kota Kinabalu,Sabah,SBH
88867,Kota Kinabalu,Sabah,SBH
88868,Kota Kinabalu,Sabah,SBH
88869,Kota Kinabalu,Sabah,SBH
88870,Kota Kinabalu,Sabah,SBH
88871,Kota Kinabalu,Sabah,SBH
88872,Kota Kinabalu,Sabah,SBH
88873,Kota Kinabalu,Sabah,SBH
88874,Kota Kinabalu,Sabah,SBH
88875,Kota Kinabalu,Sabah,SBH
88900,Kota Kinabalu,Sabah,SBH
88901,Kota Kinabalu,Sabah,SBH
88902,Kota Kinabalu,Sabah,SBH
88903,Kota Kinabalu,Sabah,SBH
88904,Kota Kinabalu,Sabah,SBH
88905,Kota Kinabalu,Sabah,SBH
88906,Kota Kinabalu,Sabah,SBH
88988,Kota Kinabalu,Sabah,SBH
88990,Kota Kinabalu,Sabah,SBH
88991,Kota Kinabalu,Sabah,SBH
88992,Kota Kinabalu,Sabah,SBH
88993,Kota Kinabalu,Sabah,SBH
88994,Kota Kinabalu,Sabah,SBH
88995,Kota Kinabalu,Sabah,SBH
88996,Kota Kinabalu,Sabah,SBH
88997,Kota Kinabalu,Sabah,SBH
88998,Kota Kinabalu,Sabah,SBH
88999,Kota Kinabalu,Sabah,SBH
90200,Kota Kinabatangan,Sabah,SBH
89100,Kota Marudu,Sabah,SBH
89107,Kota Marudu,Sabah,SBH
89108,Kota Marudu,Sabah,SBH
89109,Kota Marudu,Sabah,SBH
89740,Kuala Penyu,Sabah,SBH
89747,Kuala Penyu,Sabah,SBH
89748,Kuala Penyu,Sabah,SBH
89749,Kuala Penyu,Sabah,SBH
89050,Kudat,Sabah,SBH
89057,Kudat,Sabah,SBH
89058,Kudat,Sabah,SBH
89059,Kudat,Sabah,SBH
91200,Kunak,Sabah,SBH
91207,Kunak,Sabah,SBH
91209,Kunak,Sabah,SBH
91100,Lahad Datu,Sabah,SBH
91108,Lahad Datu,Sabah,SBH
91109,Lahad Datu,Sabah,SBH
91110,Lahad Datu,Sabah,SBH
91111,Lahad Datu,Sabah,SBH
91112,Lahad Datu,Sabah,SBH
91113,Lahad Datu,Sabah,SBH
91114,Lahad Datu,Sabah,SBH
91115,Lahad Datu,Sabah,SBH
91116,Lahad Datu,Sabah,SBH
91117,Lahad Datu,Sabah,SBH
91118,Lahad Datu,Sabah,SBH
91119,Lahad Datu,Sabah,SBH
91120,Lahad Datu,Sabah,SBH
91121,Lahad Datu,Sabah,SBH
91122,Lahad Datu,Sabah,SBH
91123,Lahad Datu,Sabah,SBH
91124,Lahad Datu,Sabah,SBH
91125,Lahad Datu,Sabah,SBH
91126,Lahad Datu,Sabah,SBH
91127,Lahad Datu,Sabah,SBH
91128,Lahad Datu,Sabah,SBH
91150,Lahad Datu,Sabah,SBH
88856,Likas,Sabah,SBH
89720,Membakut,Sabah,SBH
89727,Membakut,Sabah,SBH
89728,Membakut,Sabah,SBH
89729,Membakut,Sabah,SBH
89760,Menumbok,Sabah,SBH
89767,Menumbok,Sabah,SBH
89768,Menumbok,Sabah,SBH
89769,Menumbok,Sabah,SBH
89950,Nabawan,Sabah,SBH
89957,Nabawan,Sabah,SBH
89958,Nabawan,Sabah,SBH
89959,Nabawan,Sabah,SBH
90400,Pamol,Sabah,SBH
89600,Papar,Sabah,SBH
89607,Papar,Sabah,SBH
89608,Papar,Sabah,SBH
89609,Papar,Sabah,SBH
89500,Penampang,Sabah,SBH
89507,Penampang,Sabah,SBH
89508,Penampang,Sabah,SBH
89509,Penampang,Sabah,SBH
88721,Putatan,Sabah,SBH
88722,Putatan,Sabah,SBH
88723,Putatan,Sabah,SBH
88724,Putatan,Sabah,SBH
88725,Putatan,Sabah,SBH
89300,Ranau,Sabah,SBH
89307,Ranau,Sabah,SBH
89308,Ranau,Sabah,SBH
89309,Ranau,Sabah,SBH
89320,Ranau,Sabah,SBH
89350,Ranau,Sabah,SBH
89357,Ranau,Sabah,SBH
90000,Sandakan,Sabah,SBH
90008,Sandakan,Sabah,SBH
90009,Sandakan,Sabah,SBH
90300,Sandakan,Sabah,SBH
90307,Sandakan,Sabah,SBH
90700,Sandakan,Sabah,SBH
90701,Sandakan,Sabah,SBH
90702,Sandakan,Sabah,SBH
90703,Sandakan,Sabah,SBH
90704,Sandakan,Sabah,SBH
90705,Sandakan,Sabah,SBH
90706,Sandakan,Sabah,SBH
90707,Sandakan,Sabah,SBH
90708,Sandakan,Sabah,SBH
90709,Sandakan,Sabah,SBH
90711,Sandakan,Sabah,SBH
90712,Sandakan,Sabah,SBH
90713,Sandakan,Sabah,SBH
90714,Sandakan,Sabah,SBH
90715,Sandakan,Sabah,SBH
90716,Sandakan,Sabah,SBH
90717,Sandakan,Sabah,SBH
90718,Sandakan,Sabah,SBH
90719,Sandakan,Sabah,SBH
90720,Sandakan,Sabah,SBH
90721,Sandakan,Sabah,SBH
90722,Sandakan,Sabah,SBH
90723,Sandakan,Sabah,SBH
90724,Sandakan,Sabah,SBH
90725,Sandakan,Sabah,SBH
90726,Sandakan,Sabah,SBH
90727,Sandakan,Sabah,SBH
90728,Sandakan,Sabah,SBH
90729,Sandakan,Sabah,SBH
90730,Sandakan,Sabah,SBH
90731,Sandakan,Sabah,SBH
90732,Sandakan,Sabah,SBH
90733,Sandakan,Sabah,SBH
90734,Sandakan,Sabah,SBH
90735,Sandakan,Sabah,SBH
90736,Sandakan,Sabah,SBH
90737,Sandakan,Sabah,SBH
90738,Sandakan,Sabah,SBH
90739,Sandakan,Sabah,SBH
90740,Sandakan,Sabah,SBH
90741,Sandakan,Sabah,SBH
91300,Semporna,Sabah,SBH
91307,Semporna,Sabah,SBH
91308,Semporna,Sabah,SBH
91309,Semporna,Sabah,SBH
89850,Sipitang,Sabah,SBH
89857,Sipitang,Sabah,SBH
89858,Sipitang,Sabah,SBH
89859,Sipitang,Sabah,SBH
89650,Tambunan,Sabah,SBH
89657,Tambunan,Sabah,SBH
89658,Tambunan,Sabah,SBH
89659,Tambunan,Sabah,SBH
89250,Tamparuli,Sabah,SBH
89257,Tamparuli,Sabah,SBH
89258,Tamparuli,Sabah,SBH
89259,Tamparuli,Sabah,SBH
88858,Tanjung Aru,Sabah,SBH
91000,Tawau,Sabah,SBH
91007,Tawau,Sabah,SBH
91008,Tawau,Sabah,SBH
91009,Tawau,Sabah,SBH
91010,Tawau,Sabah,SBH
91011,Tawau,Sabah,SBH
91012,Tawau,Sabah,SBH
91013,Tawau,Sabah,SBH
91014,Tawau,Sabah,SBH
91015,Tawau,Sabah,SBH
91016,Tawau,Sabah,SBH
91017,Tawau,Sabah,SBH
91018,Tawau,Sabah,SBH
91019,Tawau,Sabah,SBH
91020,Tawau,Sabah,SBH
91021,Tawau,Sabah,SBH
91022,Tawau,Sabah,SBH
91023,Tawau,Sabah,SBH
91024,Tawau,Sabah,SBH
91025,Tawau,Sabah,SBH
91026,Tawau,Sabah,SBH
91027,Tawau,Sabah,SBH
91028,Tawau,Sabah,SBH
91029,Tawau,Sabah,SBH
91030,Tawau,Sabah,SBH
91031,Tawau,Sabah,SBH
91032,Tawau,Sabah,SBH
91033,Tawau,Sabah,SBH
91034,Tawau,Sabah,SBH
91035,Tawau,Sabah,SBH
91045,Tawau,Sabah,SBH
91056,Tawau,Sabah,SBH
89260,Tenghilan,Sabah,SBH
89900,Tenom,Sabah,SBH
89907,Tenom,Sabah,SBH
89908,Tenom,Sabah,SBH
89909,Tenom,Sabah,SBH
89200,Tuaran,Sabah,SBH
89207,Tuaran,Sabah,SBH
89208,Tuaran,Sabah,SBH
89209,Tuaran,Sabah,SBH
94600,Asajaya,Sarawak,SRW
96350,Balingian,Sarawak,SRW
98050,Baram,Sarawak,SRW
98057,Baram,Sarawak,SRW
98058,Baram,Sarawak,SRW
98059,Baram,Sarawak,SRW
94000,Bau,Sarawak,SRW
94007,Bau,Sarawak,SRW
94009,Bau,Sarawak,SRW
98150,Bekenu,Sarawak,SRW
98157,Bekenu,Sarawak,SRW
98159,Bekenu,Sarawak,SRW
96900,Belaga,Sarawak,SRW
96950,Belaga,Sarawak,SRW
96999,Belaga,Sarawak,SRW
96150,Belawai,Sarawak,SRW
95700,Betong,Sarawak,SRW
95707,Betong,Sarawak,SRW
95709,Betong,Sarawak,SRW
96500,Bintangor,Sarawak,SRW
96507,Bintangor,Sarawak,SRW
96508,Bintangor,Sarawak,SRW
96509,Bintangor,Sarawak,SRW
96510,Bintangor,Sarawak,SRW
97000,Bintulu,Sarawak,SRW
97004,Bintulu,Sarawak,SRW
97007,Bintulu,Sarawak,SRW
97008,Bintulu,Sarawak,SRW
97009,Bintulu,Sarawak,SRW
97010,Bintulu,Sarawak,SRW
97011,Bintulu,Sarawak,SRW
97012,Bintulu,Sarawak,SRW
97013,Bintulu,Sarawak,SRW
97014,Bintulu,Sarawak,SRW
97015,Bintulu,Sarawak,SRW
97300,Bintulu,Sarawak,SRW
96300,Dalat,Sarawak,SRW
96307,Dalat,Sarawak,SRW
96309,Dalat,Sarawak,SRW
96200,Daro,Sarawak,SRW
95500,Debak,Sarawak,SRW
95800,Engkilili,Sarawak,SRW
96600,Julau,Sarawak,SRW
94650,Kabong,Sarawak,SRW
96700,Kanowit,Sarawak,SRW
96707,Kanowit,Sarawak,SRW
96709,Kanowit,Sarawak,SRW
96800,Kapit,Sarawak,SRW
96807,Kapit,Sarawak,SRW
96809,Kapit,Sarawak,SRW
94300,Kota Samarahan,Sarawak,SRW
93000,Kuching,Sarawak,SRW
93010,Kuching,Sarawak,SRW
93030,Kuching,Sarawak,SRW
93050,Kuching,Sarawak,SRW
93100,Kuching,Sarawak,SRW
93150,Kuching,Sarawak,SRW
93200,Kuching,Sarawak,SRW
93250,Kuching,Sarawak,SRW
93300,Kuching,Sarawak,SRW
93350,Kuching,Sarawak,SRW
93400,Kuching,Sarawak,SRW
93450,Kuching,Sarawak,SRW
93500,Kuching,Sarawak,SRW
93502,Kuching,Sarawak,SRW
93503,Kuching,Sarawak,SRW
93504,Kuching,Sarawak,SRW
93505,Kuching,Sarawak,SRW
93506,Kuching,Sarawak,SRW
93507,Kuching,Sarawak,SRW
93508,Kuching,Sarawak,SRW
93514,Kuching,Sarawak,SRW
93516,Kuching,Sarawak,SRW
93517,Kuching,Sarawak,SRW
93518,Kuching,Sarawak,SRW
93519,Kuching,Sarawak,SRW
93520,Kuching,Sarawak,SRW
93527,Kuching,Sarawak,SRW
93529,Kuching,Sarawak,SRW
93532,Kuching,Sarawak,SRW
93540,Kuching,Sarawak,SRW
93550,Kuching,Sarawak,SRW
93551,Kuching,Sarawak,SRW
93552,Kuching,Sarawak,SRW
93554,Kuching,Sarawak,SRW
93556,Kuching,Sarawak,SRW
93558,Kuching,Sarawak,SRW
93560,Kuching,Sarawak,SRW
93564,Kuching,Sarawak,SRW
93566,Kuching,Sarawak,SRW
93570,Kuching,Sarawak,SRW
93572,Kuching,Sarawak,SRW
93576,Kuching,Sarawak,SRW
93578,Kuching,Sarawak,SRW
93582,Kuching,Sarawak,SRW
93586,Kuching,Sarawak,SRW
93590,Kuching,Sarawak,SRW
93592,Kuching,Sarawak,SRW
93594,Kuching,Sarawak,SRW
93596,Kuching,Sarawak,SRW
93600,Kuching,Sarawak,SRW
93604,Kuching,Sarawak,SRW
93606,Kuching,Sarawak,SRW
93608,Kuching,Sarawak,SRW
93609,Kuching,Sarawak,SRW
93610,Kuching,Sarawak,SRW
93612,Kuching,Sarawak,SRW
93614,Kuching,Sarawak,SRW
93618,Kuching,Sarawak,SRW
93619,Kuching,Sarawak,SRW
93620,Kuching,Sarawak,SRW
93626,Kuching,Sarawak,SRW
93628,Kuching,Sarawak,SRW
93632,Kuching,Sarawak,SRW
93634,Kuching,Sarawak,SRW
93648,Kuching,Sarawak,SRW
93658,Kuching,Sarawak,SRW
93660,Kuching,Sarawak,SRW
93661,Kuching,Sarawak,SRW
93662,Kuching,Sarawak,SRW
93668,Kuching,Sarawak,SRW
93670,Kuching,Sarawak,SRW
93672,Kuching,Sarawak,SRW
93677,Kuching,Sarawak,SRW
93690,Kuching,Sarawak,SRW
93694,Kuching,Sarawak,SRW
93700,Kuching,Sarawak,SRW
93702,Kuching,Sarawak,SRW
93704,Kuching,Sarawak,SRW
93706,Kuching,Sarawak,SRW
93708,Kuching,Sarawak,SRW
93710,Kuching,Sarawak,SRW
93712,Kuching,Sarawak,SRW
93714,Kuching,Sarawak,SRW
93716,Kuching,Sarawak,SRW
93718,Kuching,Sarawak,SRW
93720,Kuching,Sarawak,SRW
93722,Kuching,Sarawak,SRW
93724,Kuching,Sarawak,SRW
93726,Kuching,Sarawak,SRW
93728,Kuching,Sarawak,SRW
93730,Kuching,Sarawak,SRW
93732,Kuching,Sarawak,SRW
93734,Kuching,Sarawak,SRW
93736,Kuching,Sarawak,SRW
93738,Kuching,Sarawak,SRW
93740,Kuching,Sarawak,SRW
93742,Kuching,Sarawak,SRW
93744,Kuching,Sarawak,SRW
93746,Kuching,Sarawak,SRW
93748,Kuching,Sarawak,SRW
93750,Kuching,Sarawak,SRW
93752,Kuching,Sarawak,SRW
93754,Kuching,Sarawak,SRW
93756,Kuching,Sarawak,SRW
93758,Kuching,Sarawak,SRW
93760,Kuching,Sarawak,SRW
93762,Kuching,Sarawak,SRW
93764,Kuching,Sarawak,SRW
93900,Kuching,Sarawak,SRW
93902,Kuching,Sarawak,SRW
93904,Kuching,Sarawak,SRW
93906,Kuching,Sarawak,SRW
93908,Kuching,Sarawak,SRW
93910,Kuching,Sarawak,SRW
93912,Kuching,Sarawak,SRW
93914,Kuching,Sarawak,SRW
93916,Kuching,Sarawak,SRW
93990,Kuching,Sarawak,SRW
98850,Lawas,Sarawak,SRW
98857,Lawas,Sarawak,SRW
98859,Lawas,Sarawak,SRW
98700,Limbang,Sarawak,SRW
98707,Limbang,Sarawak,SRW
98708,Limbang,Sarawak,SRW
98709,Limbang,Sarawak,SRW
94900,Lingga,Sarawak,SRW
98300,Long Lama,Sarawak,SRW
95900,Lubok Antu,Sarawak,SRW
94500,Lundu,Sarawak,SRW
94507,Lundu,Sarawak,SRW
94509,Lundu,Sarawak,SRW
98100,Lutong,Sarawak,SRW
98107,Lutong,Sarawak,SRW
98109,Lutong,Sarawak,SRW
96250,Matu,Sarawak,SRW
98000,Miri,Sarawak,SRW
98007,Miri,Sarawak,SRW
98008,Miri,Sarawak,SRW
98009,Miri,Sarawak,SRW
96400,Mukah,Sarawak,SRW
96410,Mukah,Sarawak,SRW
98750,Nanga Medamit,Sarawak,SRW
98200,Niah,Sarawak,SRW
94950,Pusa,Sarawak,SRW
98070,Pusat Mel Miri,Sarawak,SRW
95300,Roban,Sarawak,SRW
95400,Saratok,Sarawak,SRW
95407,Saratok,Sarawak,SRW
95409,Saratok,Sarawak,SRW
96100,Sarikei,Sarawak,SRW
96107,Sarikei,Sarawak,SRW
96108,Sarikei,Sarawak,SRW
96109,Sarikei,Sarawak,SRW
97100,Sebauh,Sarawak,SRW
94850,Sebuyau,Sarawak,SRW
94700,Serian,Sarawak,SRW
94707,Serian,Sarawak,SRW
94709,Serian,Sarawak,SRW
94750,Serian,Sarawak,SRW
94760,Serian,Sarawak,SRW
96000,Sibu,Sarawak,SRW
96007,Sibu,Sarawak,SRW
96008,Sibu,Sarawak,SRW
96009,Sibu,Sarawak,SRW
96010,Sibu Jaya,Sarawak,SRW
94200,Siburan,Sarawak,SRW
94800,Simunjan,Sarawak,SRW
94807,Simunjan,Sarawak,SRW
94809,Simunjan,Sarawak,SRW
96850,Song,Sarawak,SRW
95600,Spaoh,Sarawak,SRW
95000,Sri Aman,Sarawak,SRW
95007,Sri Aman,Sarawak,SRW
95008,Sri Aman,Sarawak,SRW
95009,Sri Aman,Sarawak,SRW
98800,Sundar,Sarawak,SRW
97200,Tatau,Sarawak,SRW
68000,Ampang,Selangor,SGR
43650,Bandar Baru Bangi,Selangor,SGR
42300,Bandar Puncak Alam,Selangor,SGR
43600,Bangi,Selangor,SGR
42700,Banting,Selangor,SGR
45600,Batang Berjuntai,Selangor,SGR
45607,Batang Berjuntai,Selangor,SGR
45609,Batang Berjuntai,Selangor,SGR
45620,Batang Berjuntai,Selangor,SGR
45630,Batang Berjuntai,Selangor,SGR
44300,Batang Kali,Selangor,SGR
44309,Batang Kali,Selangor,SGR
44330,Batang Kali,Selangor,SGR
68100,Batu Caves,Selangor,SGR
43700,Beranang,Selangor,SGR
43701,Beranang,Selangor,SGR
45700,Bukit Rotan,Selangor,SGR
43200,Cheras,Selangor,SGR
43207,Cheras,Selangor,SGR
63000,Cyberjaya,Selangor,SGR
63100,Cyberjaya,Selangor,SGR
63200,Cyberjaya,Selangor,SGR
63300,Cyberjaya,Selangor,SGR
43800,Dengkil,Selangor,SGR
43807,Dengkil,Selangor,SGR
43100,Hulu Langat,Selangor,SGR
42600,Jenjarom,Selangor,SGR
42610,Jenjarom,Selangor,SGR
42619,Jenjarom,Selangor,SGR
45800,Jeram,Selangor,SGR
64000,KLIA,Selangor,SGR
43000,Kajang,Selangor,SGR
43007,Kajang,Selangor,SGR
43009,Kajang,Selangor,SGR
43558,Kajang,Selangor,SGR
42200,Kapar,Selangor,SGR
42209,Kapar,Selangor,SGR
44100,Kerling,Selangor,SGR
41000,Klang,Selangor,SGR
41050,Klang,Selangor,SGR
41070,Klang,Selangor,SGR
41100,Klang,Selangor,SGR
41150,Klang,Selangor,SGR
41160,Klang,Selangor,SGR
41200,Klang,Selangor,SGR
41205,Klang,Selangor,SGR
41250,Klang,Selangor,SGR
41299,Klang,Selangor,SGR
41300,Klang,Selangor,SGR
41301,Klang,Selangor,SGR
41400,Klang,Selangor,SGR
41500,Klang,Selangor,SGR
41506,Klang,Selangor,SGR
41560,Klang,Selangor,SGR
41586,Klang,Selangor,SGR
41600,Klang,Selangor,SGR
41670,Klang,Selangor,SGR
41672,Klang,Selangor,SGR
41700,Klang,Selangor,SGR
41710,Klang,Selangor,SGR
41720,Klang,Selangor,SGR
41730,Klang,Selangor,SGR
41750,Klang,Selangor,SGR
41780,Klang,Selangor,SGR
41900,Klang,Selangor,SGR
41902,Klang,Selangor,SGR
41904,Klang,Selangor,SGR
41906,Klang,Selangor,SGR
41908,Klang,Selangor,SGR
41910,Klang,Selangor,SGR
41912,Klang,Selangor,SGR
41914,Klang,Selangor,SGR
41916,Klang,Selangor,SGR
41918,Klang,Selangor,SGR
41990,Klang,Selangor,SGR
42100,Klang,Selangor,SGR
42150,Klang,Selangor,SGR
44000,Kuala Kubu Baru,Selangor,SGR
44010,Kuala Kubu Baru,Selangor,SGR
44020,Kuala Kubu Baru,Selangor,SGR
44110,Kuala Kubu Baru,Selangor,SGR
45000,Kuala Selangor,Selangor,SGR
45010,Kuala Selangor,Selangor,SGR
42000,Pelabuhan Klang,Selangor,SGR
42007,Pelabuhan Klang,Selangor,SGR
42008,Pelabuhan Klang,Selangor,SGR
42009,Pelabuhan Klang,Selangor,SGR
46000,Petaling Jaya,Selangor,SGR
46040,Petaling Jaya,Selangor,SGR
46050,Petaling Jaya,Selangor,SGR
46080,Petaling Jaya,Selangor,SGR
46100,Petaling Jaya,Selangor,SGR
46150,Petaling Jaya,Selangor,SGR
46160,Petaling Jaya,Selangor,SGR
46200,Petaling Jaya,Selangor,SGR
46300,Petaling Jaya,Selangor,SGR
46350,Petaling Jaya,Selangor,SGR
46400,Petaling Jaya,Selangor,SGR
46460,Petaling Jaya,Selangor,SGR
46500,Petaling Jaya,Selangor,SGR
46505,Petaling Jaya,Selangor,SGR
46506,Petaling Jaya,Selangor,SGR
46510,Petaling Jaya,Selangor,SGR
46547,Petaling Jaya,Selangor,SGR
46549,Petaling Jaya,Selangor,SGR
46551,Petaling Jaya,Selangor,SGR
46564,Petaling Jaya,Selangor,SGR
46582,Petaling Jaya,Selangor,SGR
46598,Petaling Jaya,Selangor,SGR
46662,Petaling Jaya,Selangor,SGR
46667,Petaling Jaya,Selangor,SGR
46668,Petaling Jaya,Selangor,SGR
46672,Petaling Jaya,Selangor,SGR
46675,Petaling Jaya,Selangor,SGR
46692,Petaling Jaya,Selangor,SGR
46700,Petaling Jaya,Selangor,SGR
46710,Petaling Jaya,Selangor,SGR
46720,Petaling Jaya,Selangor,SGR
46730,Petaling Jaya,Selangor,SGR
46740,Petaling Jaya,Selangor,SGR
46750,Petaling Jaya,Selangor,SGR
46760,Petaling Jaya,Selangor,SGR
46770,Petaling Jaya,Selangor,SGR
46780,Petaling Jaya,Selangor,SGR
46781,Petaling Jaya,Selangor,SGR
46782,Petaling Jaya,Selangor,SGR
46783,Petaling Jaya,Selangor,SGR
46784,Petaling Jaya,Selangor,SGR
46785,Petaling Jaya,Selangor,SGR
46786,Petaling Jaya,Selangor,SGR
46787,Petaling Jaya,Selangor,SGR
46788,Petaling Jaya,Selangor,SGR
46789,Petaling Jaya,Selangor,SGR
46790,Petaling Jaya,Selangor,SGR
46791,Petaling Jaya,Selangor,SGR
46792,Petaling Jaya,Selangor,SGR
46793,Petaling Jaya,Selangor,SGR
46794,Petaling Jaya,Selangor,SGR
46795,Petaling Jaya,Selangor,SGR
46796,Petaling Jaya,Selangor,SGR
46797,Petaling Jaya,Selangor,SGR
46798,Petaling Jaya,Selangor,SGR
46799,Petaling Jaya,Selangor,SGR
46800,Petaling Jaya,Selangor,SGR
46801,Petaling Jaya,Selangor,SGR
46802,Petaling Jaya,Selangor,SGR
46803,Petaling Jaya,Selangor,SGR
46804,Petaling Jaya,Selangor,SGR
46805,Petaling Jaya,Selangor,SGR
46806,Petaling Jaya,Selangor,SGR
46860,Petaling Jaya,Selangor,SGR
46870,Petaling Jaya,Selangor,SGR
46960,Petaling Jaya,Selangor,SGR
46962,Petaling Jaya,Selangor,SGR
46964,Petaling Jaya,Selangor,SGR
46966,Petaling Jaya,Selangor,SGR
46968,Petaling Jaya,Selangor,SGR
46970,Petaling Jaya,Selangor,SGR
46972,Petaling Jaya,Selangor,SGR
46974,Petaling Jaya,Selangor,SGR
46976,Petaling Jaya,Selangor,SGR
46978,Petaling Jaya,Selangor,SGR
46990,Petaling Jaya,Selangor,SGR
47300,Petaling Jaya,Selangor,SGR
47301,Petaling Jaya,Selangor,SGR
47304,Petaling Jaya,Selangor,SGR
47307,Petaling Jaya,Selangor,SGR
47308,Petaling Jaya,Selangor,SGR
47309,Petaling Jaya,Selangor,SGR
47310,Petaling Jaya,Selangor,SGR
47400,Petaling Jaya,Selangor,SGR
47410,Petaling Jaya,Selangor,SGR
47430,Petaling Jaya,Selangor,SGR
47800,Petaling Jaya,Selangor,SGR
47801,Petaling Jaya,Selangor,SGR
47810,Petaling Jaya,Selangor,SGR
47820,Petaling Jaya,Selangor,SGR
47829,Petaling Jaya,Selangor,SGR
47830,Petaling Jaya,Selangor,SGR
47850,Petaling Jaya,Selangor,SGR
47100,Puchong,Selangor,SGR
47110,Puchong,Selangor,SGR
47120,Puchong,Selangor,SGR
47130,Puchong,Selangor,SGR
47140,Puchong,Selangor,SGR
47150,Puchong,Selangor,SGR
47160,Puchong,Selangor,SGR
47170,Puchong,Selangor,SGR
47180,Puchong,Selangor,SGR
47190,Puchong,Selangor,SGR
42960,Pulau Carey,Selangor,SGR
42999,Pulau Carey,Selangor,SGR
42900,Pulau Indah,Selangor,SGR
42907,Pulau Indah,Selangor,SGR
42920,Pulau Indah,Selangor,SGR
42940,Pulau Ketam,Selangor,SGR
44200,Rasa,Selangor,SGR
48000,Rawang,Selangor,SGR
48009,Rawang,Selangor,SGR
48010,Rawang,Selangor,SGR
48020,Rawang,Selangor,SGR
48050,Rawang,Selangor,SGR
48100,Rawang,Selangor,SGR
48300,Rawang,Selangor,SGR
48302,Rawang,Selangor,SGR
45200,Sabak Bernam,Selangor,SGR
45207,Sabak Bernam,Selangor,SGR
45209,Sabak Bernam,Selangor,SGR
45400,Sekinchan,Selangor,SGR
43500,Semenyih,Selangor,SGR
43900,Sepang,Selangor,SGR
43400,Serdang,Selangor,SGR
48200,Serendah,Selangor,SGR
48250,Serendah,Selangor,SGR
43300,Seri Kembangan,Selangor,SGR
43399,Seri Kembangan,Selangor,SGR
40000,Shah Alam,Selangor,SGR
40100,Shah Alam,Selangor,SGR
40140,Shah Alam,Selangor,SGR
40150,Shah Alam,Selangor,SGR
40160,Shah Alam,Selangor,SGR
40169,Shah Alam,Selangor,SGR
40170,Shah Alam,Selangor,SGR
40179,Shah Alam,Selangor,SGR
40200,Shah Alam,Selangor,SGR
40250,Shah Alam,Selangor,SGR
40300,Shah Alam,Selangor,SGR
40350,Shah Alam,Selangor,SGR
40400,Shah Alam,Selangor,SGR
40409,Shah Alam,Selangor,SGR
40410,Shah Alam,Selangor,SGR
40440,Shah Alam,Selangor,SGR
40450,Shah Alam,Selangor,SGR
40460,Shah Alam,Selangor,SGR
40470,Shah Alam,Selangor,SGR
40490,Shah Alam,Selangor,SGR
40500,Shah Alam,Selangor,SGR
40502,Shah Alam,Selangor,SGR
40503,Shah Alam,Selangor,SGR
40505,Shah Alam,Selangor,SGR
40512,Shah Alam,Selangor,SGR
40517,Shah Alam,Selangor,SGR
40520,Shah Alam,Selangor,SGR
40529,Shah Alam,Selangor,SGR
40542,Shah Alam,Selangor,SGR
40548,Shah Alam,Selangor,SGR
40550,Shah Alam,Selangor,SGR
40551,Shah Alam,Selangor,SGR
40560,Shah Alam,Selangor,SGR
40564,Shah Alam,Selangor,SGR
40570,Shah Alam,Selangor,SGR
40572,Shah Alam,Selangor,SGR
40576,Shah Alam,Selangor,SGR
40578,Shah Alam,Selangor,SGR
40582,Shah Alam,Selangor,SGR
40590,Shah Alam,Selangor,SGR
40592,Shah Alam,Selangor,SGR
40594,Shah Alam,Selangor,SGR
40596,Shah Alam,Selangor,SGR
40598,Shah Alam,Selangor,SGR
40600,Shah Alam,Selangor,SGR
40604,Shah Alam,Selangor,SGR
40607,Shah Alam,Selangor,SGR
40608,Shah Alam,Selangor,SGR
40610,Shah Alam,Selangor,SGR
40612,Shah Alam,Selangor,SGR
40620,Shah Alam,Selangor,SGR
40622,Shah Alam,Selangor,SGR
40626,Shah Alam,Selangor,SGR
40630,Shah Alam,Selangor,SGR
40632,Shah Alam,Selangor,SGR
40646,Shah Alam,Selangor,SGR
40648,Shah Alam,Selangor,SGR
40650,Shah Alam,Selangor,SGR
40660,Shah Alam,Selangor,SGR
40664,Shah Alam,Selangor,SGR
40670,Shah Alam,Selangor,SGR
40672,Shah Alam,Selangor,SGR
40673,Shah Alam,Selangor,SGR
40674,Shah Alam,Selangor,SGR
40675,Shah Alam,Selangor,SGR
40676,Shah Alam,Selangor,SGR
40680,Shah Alam,Selangor,SGR
40690,Shah Alam,Selangor,SGR
40700,Shah Alam,Selangor,SGR
40702,Shah Alam,Selangor,SGR
40704,Shah Alam,Selangor,SGR
40706,Shah Alam,Selangor,SGR
40708,Shah Alam,Selangor,SGR
40710,Shah Alam,Selangor,SGR
40712,Shah Alam,Selangor,SGR
40714,Shah Alam,Selangor,SGR
40716,Shah Alam,Selangor,SGR
40718,Shah Alam,Selangor,SGR
40720,Shah Alam,Selangor,SGR
40722,Shah Alam,Selangor,SGR
40724,Shah Alam,Selangor,SGR
40726,Shah Alam,Selangor,SGR
40728,Shah Alam,Selangor,SGR
40730,Shah Alam,Selangor,SGR
40732,Shah Alam,Selangor,SGR
40800,Shah Alam,Selangor,SGR
40802,Shah Alam,Selangor,SGR
40804,Shah Alam,Selangor,SGR
40806,Shah Alam,Selangor,SGR
40808,Shah Alam,Selangor,SGR
40810,Shah Alam,Selangor,SGR
40900,Shah Alam,Selangor,SGR
40912,Shah Alam,Selangor,SGR
40915,Shah Alam,Selangor,SGR
40990,Shah Alam,Selangor,SGR
42450,Shah Alam,Selangor,SGR
47200,Subang Airport,Selangor,SGR
47210,Subang Airport,Selangor,SGR
47500,Subang Jaya,Selangor,SGR
47507,Subang Jaya,Selangor,SGR
47510,Subang Jaya,Selangor,SGR
47600,Subang Jaya,Selangor,SGR
47601,Subang Jaya,Selangor,SGR
47610,Subang Jaya,Selangor,SGR
47618,Subang Jaya,Selangor,SGR
47620,Subang Jaya,Selangor,SGR
47630,Subang Jaya,Selangor,SGR
47640,Subang Jaya,Selangor,SGR
47650,Subang Jaya,Selangor,SGR
55555,Subang Jaya,Selangor,SGR
45100,Sungai Ayer Tawar,Selangor,SGR
45300,Sungai Besar,Selangor,SGR
47000,Sungai Buloh,Selangor,SGR
47020,Sungai Buloh,Selangor,SGR
47031,Sungai Buloh,Selangor,SGR
43950,Sungai Pelek,Selangor,SGR
43999,Sungai Pelek,Selangor,SGR
45500,Tanjong Karang,Selangor,SGR
42800,Tanjong Sepat,Selangor,SGR
42425,Telok Panglima Garang,Selangor,SGR
42500,Telok Panglima Garang,Selangor,SGR
42507,Telok Panglima Garang,Selangor,SGR
42509,Telok Panglima Garang,Selangor,SGR
21800,Ajil,Terengganu,TRG
21810,Ajil,Terengganu,TRG
21820,Ajil,Terengganu,TRG
23400,Al Muktatfi Billah Shah,Terengganu,TRG
24050,Ayer Puteh,Terengganu,TRG
23200,Bukit Besi,Terengganu,TRG
21400,Bukit Payong,Terengganu,TRG
24060,Ceneh,Terengganu,TRG
21450,Chalok,Terengganu,TRG
24000,Cukai,Terengganu,TRG
24007,Cukai,Terengganu,TRG
24009,Cukai,Terengganu,TRG
24010,Cukai,Terengganu,TRG
24020,Cukai,Terengganu,TRG
24030,Cukai,Terengganu,TRG
24040,Cukai,Terengganu,TRG
23000,Dungun,Terengganu,TRG
23007,Dungun,Terengganu,TRG
23009,Dungun,Terengganu,TRG
23050,Dungun,Terengganu,TRG
22000,Jerteh,Terengganu,TRG
22010,Jerteh,Terengganu,TRG
22020,Jerteh,Terengganu,TRG
22030,Jerteh,Terengganu,TRG
22040,Jerteh,Terengganu,TRG
22200,Kampung Raja,Terengganu,TRG
24200,Kemasek,Terengganu,TRG
24207,Kemasek,Terengganu,TRG
24209,Kemasek,Terengganu,TRG
24210,Kemasek,Terengganu,TRG
24220,Kemasek,Terengganu,TRG
24300,Kerteh,Terengganu,TRG
23300,Ketengah Jaya,Terengganu,TRG
23345,Ketengah Jaya,Terengganu,TRG
24100,Kijal,Terengganu,TRG
24107,Kijal,Terengganu,TRG
24109,Kijal,Terengganu,TRG
21700,Kuala Berang,Terengganu,TRG
22300,Kuala Besut,Terengganu,TRG
22307,Kuala Besut,Terengganu,TRG
22309,Kuala Besut,Terengganu,TRG
20000,Kuala Terengganu,Terengganu,TRG
20050,Kuala Terengganu,Terengganu,TRG
20080,Kuala Terengganu,Terengganu,TRG
20100,Kuala Terengganu,Terengganu,TRG
20200,Kuala Terengganu,Terengganu,TRG
20300,Kuala Terengganu,Terengganu,TRG
20400,Kuala Terengganu,Terengganu,TRG
20500,Kuala Terengganu,Terengganu,TRG
20502,Kuala Terengganu,Terengganu,TRG
20503,Kuala Terengganu,Terengganu,TRG
20504,Kuala Terengganu,Terengganu,TRG
20505,Kuala Terengganu,Terengganu,TRG
20506,Kuala Terengganu,Terengganu,TRG
20508,Kuala Terengganu,Terengganu,TRG
20512,Kuala Terengganu,Terengganu,TRG
20514,Kuala Terengganu,Terengganu,TRG
20516,Kuala Terengganu,Terengganu,TRG
20517,Kuala Terengganu,Terengganu,TRG
20518,Kuala Terengganu,Terengganu,TRG
20519,Kuala Terengganu,Terengganu,TRG
20520,Kuala Terengganu,Terengganu,TRG
20532,Kuala Terengganu,Terengganu,TRG
20534,Kuala Terengganu,Terengganu,TRG
20536,Kuala Terengganu,Terengganu,TRG
20538,Kuala Terengganu,Terengganu,TRG
20540,Kuala Terengganu,Terengganu,TRG
20542,Kuala Terengganu,Terengganu,TRG
20546,Kuala Terengganu,Terengganu,TRG
20548,Kuala Terengganu,Terengganu,TRG
20550,Kuala Terengganu,Terengganu,TRG
20551,Kuala Terengganu,Terengganu,TRG
20552,Kuala Terengganu,Terengganu,TRG
20554,Kuala Terengganu,Terengganu,TRG
20556,Kuala Terengganu,Terengganu,TRG
20560,Kuala Terengganu,Terengganu,TRG
20564,Kuala Terengganu,Terengganu,TRG
20566,Kuala Terengganu,Terengganu,TRG
20568,Kuala Terengganu,Terengganu,TRG
20570,Kuala Terengganu,Terengganu,TRG
20572,Kuala Terengganu,Terengganu,TRG
20576,Kuala Terengganu,Terengganu,TRG
20578,Kuala Terengganu,Terengganu,TRG
20582,Kuala Terengganu,Terengganu,TRG
20586,Kuala Terengganu,Terengganu,TRG
20590,Kuala Terengganu,Terengganu,TRG
20592,Kuala Terengganu,Terengganu,TRG
20596,Kuala Terengganu,Terengganu,TRG
20600,Kuala Terengganu,Terengganu,TRG
20604,Kuala Terengganu,Terengganu,TRG
20606,Kuala Terengganu,Terengganu,TRG
20608,Kuala Terengganu,Terengganu,TRG
20609,Kuala Terengganu,Terengganu,TRG
20610,Kuala Terengganu,Terengganu,TRG
20612,Kuala Terengganu,Terengganu,TRG
20614,Kuala Terengganu,Terengganu,TRG
20618,Kuala Terengganu,Terengganu,TRG
20620,Kuala Terengganu,Terengganu,TRG
20622,Kuala Terengganu,Terengganu,TRG
20626,Kuala Terengganu,Terengganu,TRG
20628,Kuala Terengganu,Terengganu,TRG
20630,Kuala Terengganu,Terengganu,TRG
20632,Kuala Terengganu,Terengganu,TRG
20646,Kuala Terengganu,Terengganu,TRG
20648,Kuala Terengganu,Terengganu,TRG
20656,Kuala Terengganu,Terengganu,TRG
20658,Kuala Terengganu,Terengganu,TRG
20660,Kuala Terengganu,Terengganu,TRG
20661,Kuala Terengganu,Terengganu,TRG
20662,Kuala Terengganu,Terengganu,TRG
20664,Kuala Terengganu,Terengganu,TRG
20668,Kuala Terengganu,Terengganu,TRG
20670,Kuala Terengganu,Terengganu,TRG
20672,Kuala Terengganu,Terengganu,TRG
20673,Kuala Terengganu,Terengganu,TRG
20674,Kuala Terengganu,Terengganu,TRG
20676,Kuala Terengganu,Terengganu,TRG
20680,Kuala Terengganu,Terengganu,TRG
20690,Kuala Terengganu,Terengganu,TRG
20698,Kuala Terengganu,Terengganu,TRG
20700,Kuala Terengganu,Terengganu,TRG
20710,Kuala Terengganu,Terengganu,TRG
20720,Kuala Terengganu,Terengganu,TRG
20900,Kuala Terengganu,Terengganu,TRG
20902,Kuala Terengganu,Terengganu,TRG
20904,Kuala Terengganu,Terengganu,TRG
20906,Kuala Terengganu,Terengganu,TRG
20908,Kuala Terengganu,Terengganu,TRG
20910,Kuala Terengganu,Terengganu,TRG
20912,Kuala Terengganu,Terengganu,TRG
20914,Kuala Terengganu,Terengganu,TRG
20916,Kuala Terengganu,Terengganu,TRG
20918,Kuala Terengganu,Terengganu,TRG
20920,Kuala Terengganu,Terengganu,TRG
20922,Kuala Terengganu,Terengganu,TRG
20924,Kuala Terengganu,Terengganu,TRG
20926,Kuala Terengganu,Terengganu,TRG
20928,Kuala Terengganu,Terengganu,TRG
20930,Kuala Terengganu,Terengganu,TRG
20990,Kuala Terengganu,Terengganu,TRG
20999,Kuala Terengganu,Terengganu,TRG
21000,Kuala Terengganu,Terengganu,TRG
21009,Kuala Terengganu,Terengganu,TRG
21010,Kuala Terengganu,Terengganu,TRG
21020,Kuala Terengganu,Terengganu,TRG
21030,Kuala Terengganu,Terengganu,TRG
21040,Kuala Terengganu,Terengganu,TRG
21050,Kuala Terengganu,Terengganu,TRG
21060,Kuala Terengganu,Terengganu,TRG
21070,Kuala Terengganu,Terengganu,TRG
21080,Kuala Terengganu,Terengganu,TRG
21090,Kuala Terengganu,Terengganu,TRG
21100,Kuala Terengganu,Terengganu,TRG
21109,Kuala Terengganu,Terengganu,TRG
21200,Kuala Terengganu,Terengganu,TRG
21209,Kuala Terengganu,Terengganu,TRG
21210,Kuala Terengganu,Terengganu,TRG
21220,Kuala Terengganu,Terengganu,TRG
21300,Kuala Terengganu,Terengganu,TRG
21309,Kuala Terengganu,Terengganu,TRG
21600,Marang,Terengganu,TRG
21610,Marang,Terengganu,TRG
23100,Paka,Terengganu,TRG
22100,Permaisuri,Terengganu,TRG
22107,Permaisuri,Terengganu,TRG
22109,Permaisuri,Terengganu,TRG
22110,Permaisuri,Terengganu,TRG
22120,Permaisuri,Terengganu,TRG
21500,Sungai Tong,Terengganu,TRG
50000,Kuala Lumpur,Wp Kuala Lumpur,KUL
50050,Kuala Lumpur,Wp Kuala Lumpur,KUL
50088,Kuala Lumpur,Wp Kuala Lumpur,KUL
50100,Kuala Lumpur,Wp Kuala Lumpur,KUL
50150,Kuala Lumpur,Wp Kuala Lumpur,KUL
50200,Kuala Lumpur,Wp Kuala Lumpur,KUL
50250,Kuala Lumpur,Wp Kuala Lumpur,KUL
50300,Kuala Lumpur,Wp Kuala Lumpur,KUL
50350,Kuala Lumpur,Wp Kuala Lumpur,KUL
50400,Kuala Lumpur,Wp Kuala Lumpur,KUL
50420,Kuala Lumpur,Wp Kuala Lumpur,KUL
50450,Kuala Lumpur,Wp Kuala Lumpur,KUL
50460,Kuala Lumpur,Wp Kuala Lumpur,KUL
50470,Kuala Lumpur,Wp Kuala Lumpur,KUL
50480,Kuala Lumpur,Wp Kuala Lumpur,KUL
50489,Kuala Lumpur,Wp Kuala Lumpur,KUL
50490,Kuala Lumpur,Wp Kuala Lumpur,KUL
50500,Kuala Lumpur,Wp Kuala Lumpur,KUL
50502,Kuala Lumpur,Wp Kuala Lumpur,KUL
50504,Kuala Lumpur,Wp Kuala Lumpur,KUL
50505,Kuala Lumpur,Wp Kuala Lumpur,KUL
50506,Kuala Lumpur,Wp Kuala Lumpur,KUL
50507,Kuala Lumpur,Wp Kuala Lumpur,KUL
50508,Kuala Lumpur,Wp Kuala Lumpur,KUL
50512,Kuala Lumpur,Wp Kuala Lumpur,KUL
50514,Kuala Lumpur,Wp Kuala Lumpur,KUL
50515,Kuala Lumpur,Wp Kuala Lumpur,KUL
50519,Kuala Lumpur,Wp Kuala Lumpur,KUL
50528,Kuala Lumpur,Wp Kuala Lumpur,KUL
50529,Kuala Lumpur,Wp Kuala Lumpur,KUL
50530,Kuala Lumpur,Wp Kuala Lumpur,KUL
50532,Kuala Lumpur,Wp Kuala Lumpur,KUL
50534,Kuala Lumpur,Wp Kuala Lumpur,KUL
50536,Kuala Lumpur,Wp Kuala Lumpur,KUL
50538,Kuala Lumpur,Wp Kuala Lumpur,KUL
50540,Kuala Lumpur,Wp Kuala Lumpur,KUL
50544,Kuala Lumpur,Wp Kuala Lumpur,KUL
50546,Kuala Lumpur,Wp Kuala Lumpur,KUL
50548,Kuala Lumpur,Wp Kuala Lumpur,KUL
50550,Kuala Lumpur,Wp Kuala Lumpur,KUL
50551,Kuala Lumpur,Wp Kuala Lumpur,KUL
50552,Kuala Lumpur,Wp Kuala Lumpur,KUL
50554,Kuala Lumpur,Wp Kuala Lumpur,KUL
50556,Kuala Lumpur,Wp Kuala Lumpur,KUL
50560,Kuala Lumpur,Wp Kuala Lumpur,KUL
50562,Kuala Lumpur,Wp Kuala Lumpur,KUL
50564,Kuala Lumpur,Wp Kuala Lumpur,KUL
50566,Kuala Lumpur,Wp Kuala Lumpur,KUL
50568,Kuala Lumpur,Wp Kuala Lumpur,KUL
50572,Kuala Lumpur,Wp Kuala Lumpur,KUL
50576,Kuala Lumpur,Wp Kuala Lumpur,KUL
50578,Kuala Lumpur,Wp Kuala Lumpur,KUL
50580,Kuala Lumpur,Wp Kuala Lumpur,KUL
50582,Kuala Lumpur,Wp Kuala Lumpur,KUL
50586,Kuala Lumpur,Wp Kuala Lumpur,KUL
50588,Kuala Lumpur,Wp Kuala Lumpur,KUL
50590,Kuala Lumpur,Wp Kuala Lumpur,KUL
50592,Kuala Lumpur,Wp Kuala Lumpur,KUL
50594,Kuala Lumpur,Wp Kuala Lumpur,KUL
50596,Kuala Lumpur,Wp Kuala Lumpur,KUL
50598,Kuala Lumpur,Wp Kuala Lumpur,KUL
50599,Kuala Lumpur,Wp Kuala Lumpur,KUL
50600,Kuala Lumpur,Wp Kuala Lumpur,KUL
50603,Kuala Lumpur,Wp Kuala Lumpur,KUL
50604,Kuala Lumpur,Wp Kuala Lumpur,KUL
50605,Kuala Lumpur,Wp Kuala Lumpur,KUL
50608,Kuala Lumpur,Wp Kuala Lumpur,KUL
50609,Kuala Lumpur,Wp Kuala Lumpur,KUL
50610,Kuala Lumpur,Wp Kuala Lumpur,KUL
50612,Kuala Lumpur,Wp Kuala Lumpur,KUL
50614,Kuala Lumpur,Wp Kuala Lumpur,KUL
50620,Kuala Lumpur,Wp Kuala Lumpur,KUL
50621,Kuala Lumpur,Wp Kuala Lumpur,KUL
50622,Kuala Lumpur,Wp Kuala Lumpur,KUL
50623,Kuala Lumpur,Wp Kuala Lumpur,KUL
50626,Kuala Lumpur,Wp Kuala Lumpur,KUL
50630,Kuala Lumpur,Wp Kuala Lumpur,KUL
50632,Kuala Lumpur,Wp Kuala Lumpur,KUL
50634,Kuala Lumpur,Wp Kuala Lumpur,KUL
50636,Kuala Lumpur,Wp Kuala Lumpur,KUL
50638,Kuala Lumpur,Wp Kuala Lumpur,KUL
50640,Kuala Lumpur,Wp Kuala Lumpur,KUL
50642,Kuala Lumpur,Wp Kuala Lumpur,KUL
50644,Kuala Lumpur,Wp Kuala Lumpur,KUL
50646,Kuala Lumpur,Wp Kuala Lumpur,KUL
50648,Kuala Lumpur,Wp Kuala Lumpur,KUL
50650,Kuala Lumpur,Wp Kuala Lumpur,KUL
50652,Kuala Lumpur,Wp Kuala Lumpur,KUL
50653,Kuala Lumpur,Wp Kuala Lumpur,KUL
50656,Kuala Lumpur,Wp Kuala Lumpur,KUL
50658,Kuala Lumpur,Wp Kuala Lumpur,KUL
50660,Kuala Lumpur,Wp Kuala Lumpur,KUL
50661,Kuala Lumpur,Wp Kuala Lumpur,KUL
50662,Kuala Lumpur,Wp Kuala Lumpur,KUL
50664,Kuala Lumpur,Wp Kuala Lumpur,KUL
50666,Kuala Lumpur,Wp Kuala Lumpur,KUL
50668,Kuala Lumpur,Wp Kuala Lumpur,KUL
50670,Kuala Lumpur,Wp Kuala Lumpur,KUL
50672,Kuala Lumpur,Wp Kuala Lumpur,KUL
50673,Kuala Lumpur,Wp Kuala Lumpur,KUL
50674,Kuala Lumpur,Wp Kuala Lumpur,KUL
50676,Kuala Lumpur,Wp Kuala Lumpur,KUL
50677,Kuala Lumpur,Wp Kuala Lumpur,KUL
50678,Kuala Lumpur,Wp Kuala Lumpur,KUL
50680,Kuala Lumpur,Wp Kuala Lumpur,KUL
50682,Kuala Lumpur,Wp Kuala Lumpur,KUL
50684,Kuala Lumpur,Wp Kuala Lumpur,KUL
50688,Kuala Lumpur,Wp Kuala Lumpur,KUL
50694,Kuala Lumpur,Wp Kuala Lumpur,KUL
50700,Kuala Lumpur,Wp Kuala Lumpur,KUL
50702,Kuala Lumpur,Wp Kuala Lumpur,KUL
50704,Kuala Lumpur,Wp Kuala Lumpur,KUL
50706,Kuala Lumpur,Wp Kuala Lumpur,KUL
50708,Kuala Lumpur,Wp Kuala Lumpur,KUL
50710,Kuala Lumpur,Wp Kuala Lumpur,KUL
50712,Kuala Lumpur,Wp Kuala Lumpur,KUL
50714,Kuala Lumpur,Wp Kuala Lumpur,KUL
50716,Kuala Lumpur,Wp Kuala Lumpur,KUL
50718,Kuala Lumpur,Wp Kuala Lumpur,KUL
50720,Kuala Lumpur,Wp Kuala Lumpur,KUL
50722,Kuala Lumpur,Wp Kuala Lumpur,KUL
50724,Kuala Lumpur,Wp Kuala Lumpur,KUL
50726,Kuala Lumpur,Wp Kuala Lumpur,KUL
50728,Kuala Lumpur,Wp Kuala Lumpur,KUL
50730,Kuala Lumpur,Wp Kuala Lumpur,KUL
50732,Kuala Lumpur,Wp Kuala Lumpur,KUL
50734,Kuala Lumpur,Wp Kuala Lumpur,KUL
50736,Kuala Lumpur,Wp Kuala Lumpur,KUL
50738,Kuala Lumpur,Wp Kuala Lumpur,KUL
50740,Kuala Lumpur,Wp Kuala Lumpur,KUL
50742,Kuala Lumpur,Wp Kuala Lumpur,KUL
50744,Kuala Lumpur,Wp Kuala Lumpur,KUL
50746,Kuala Lumpur,Wp Kuala Lumpur,KUL
50748,Kuala Lumpur,Wp Kuala Lumpur,KUL
50750,Kuala Lumpur,Wp Kuala Lumpur,KUL
50752,Kuala Lumpur,Wp Kuala Lumpur,KUL
50754,Kuala Lumpur,Wp Kuala Lumpur,KUL
50758,Kuala Lumpur,Wp Kuala Lumpur,KUL
50760,Kuala Lumpur,Wp Kuala Lumpur,KUL
50762,Kuala Lumpur,Wp Kuala Lumpur,KUL
50764,Kuala Lumpur,Wp Kuala Lumpur,KUL
50766,Kuala Lumpur,Wp Kuala Lumpur,KUL
50768,Kuala Lumpur,Wp Kuala Lumpur,KUL
50770,Kuala Lumpur,Wp Kuala Lumpur,KUL
50772,Kuala Lumpur,Wp Kuala Lumpur,KUL
50774,Kuala Lumpur,Wp Kuala Lumpur,KUL
50776,Kuala Lumpur,Wp Kuala Lumpur,KUL
50778,Kuala Lumpur,Wp Kuala Lumpur,KUL
50780,Kuala Lumpur,Wp Kuala Lumpur,KUL
50782,Kuala Lumpur,Wp Kuala Lumpur,KUL
50784,Kuala Lumpur,Wp Kuala Lumpur,KUL
50786,Kuala Lumpur,Wp Kuala Lumpur,KUL
50788,Kuala Lumpur,Wp Kuala Lumpur,KUL
50790,Kuala Lumpur,Wp Kuala Lumpur,KUL
50792,Kuala Lumpur,Wp Kuala Lumpur,KUL
50794,Kuala Lumpur,Wp Kuala Lumpur,KUL
50796,Kuala Lumpur,Wp Kuala Lumpur,KUL
50798,Kuala Lumpur,Wp Kuala Lumpur,KUL
50800,Kuala Lumpur,Wp Kuala Lumpur,KUL
50802,Kuala Lumpur,Wp Kuala Lumpur,KUL
50804,Kuala Lumpur,Wp Kuala Lumpur,KUL
50806,Kuala Lumpur,Wp Kuala Lumpur,KUL
50808,Kuala Lumpur,Wp Kuala Lumpur,KUL
50810,Kuala Lumpur,Wp Kuala Lumpur,KUL
50812,Kuala Lumpur,Wp Kuala Lumpur,KUL
50814,Kuala Lumpur,Wp Kuala Lumpur,KUL
50816,Kuala Lumpur,Wp Kuala Lumpur,KUL
50818,Kuala Lumpur,Wp Kuala Lumpur,KUL
50901,Kuala Lumpur,Wp Kuala Lumpur,KUL
50902,Kuala Lumpur,Wp Kuala Lumpur,KUL
50903,Kuala Lumpur,Wp Kuala Lumpur,KUL
50904,Kuala Lumpur,Wp Kuala Lumpur,KUL
50906,Kuala Lumpur,Wp Kuala Lumpur,KUL
50907,Kuala Lumpur,Wp Kuala Lumpur,KUL
50908,Kuala Lumpur,Wp Kuala Lumpur,KUL
50909,Kuala Lumpur,Wp Kuala Lumpur,KUL
50910,Kuala Lumpur,Wp Kuala Lumpur,KUL
50911,Kuala Lumpur,Wp Kuala Lumpur,KUL
50912,Kuala Lumpur,Wp Kuala Lumpur,KUL
50913,Kuala Lumpur,Wp Kuala Lumpur,KUL
50914,Kuala Lumpur,Wp Kuala Lumpur,KUL
50915,Kuala Lumpur,Wp Kuala Lumpur,KUL
50916,Kuala Lumpur,Wp Kuala Lumpur,KUL
50917,Kuala Lumpur,Wp Kuala Lumpur,KUL
50918,Kuala Lumpur,Wp Kuala Lumpur,KUL
50919,Kuala Lumpur,Wp Kuala Lumpur,KUL
50920,Kuala Lumpur,Wp Kuala Lumpur,KUL
50921,Kuala Lumpur,Wp Kuala Lumpur,KUL
50922,Kuala Lumpur,Wp Kuala Lumpur,KUL
50923,Kuala Lumpur,Wp Kuala Lumpur,KUL
50924,Kuala Lumpur,Wp Kuala Lumpur,KUL
50925,Kuala Lumpur,Wp Kuala Lumpur,KUL
50926,Kuala Lumpur,Wp Kuala Lumpur,KUL
50927,Kuala Lumpur,Wp Kuala Lumpur,KUL
50928,Kuala Lumpur,Wp Kuala Lumpur,KUL
50929,Kuala Lumpur,Wp Kuala Lumpur,KUL
50930,Kuala Lumpur,Wp Kuala Lumpur,KUL
50931,Kuala Lumpur,Wp Kuala Lumpur,KUL
50932,Kuala Lumpur,Wp Kuala Lumpur,KUL
50933,Kuala Lumpur,Wp Kuala Lumpur,KUL
50934,Kuala Lumpur,Wp Kuala Lumpur,KUL
50935,Kuala Lumpur,Wp Kuala Lumpur,KUL
50936,Kuala Lumpur,Wp Kuala Lumpur,KUL
50937,Kuala Lumpur,Wp Kuala Lumpur,KUL
50938,Kuala Lumpur,Wp Kuala Lumpur,KUL
50939,Kuala Lumpur,Wp Kuala Lumpur,KUL
50940,Kuala Lumpur,Wp Kuala Lumpur,KUL
50941,Kuala Lumpur,Wp Kuala Lumpur,KUL
50942,Kuala Lumpur,Wp Kuala Lumpur,KUL
50943,Kuala Lumpur,Wp Kuala Lumpur,KUL
50944,Kuala Lumpur,Wp Kuala Lumpur,KUL
50945,Kuala Lumpur,Wp Kuala Lumpur,KUL
50946,Kuala Lumpur,Wp Kuala Lumpur,KUL
50947,Kuala Lumpur,Wp Kuala Lumpur,KUL
50948,Kuala Lumpur,Wp Kuala Lumpur,KUL
50949,Kuala Lumpur,Wp Kuala Lumpur,KUL
50950,Kuala Lumpur,Wp Kuala Lumpur,KUL
50988,Kuala Lumpur,Wp Kuala Lumpur,KUL
50989,Kuala Lumpur,Wp Kuala Lumpur,KUL
50990,Kuala Lumpur,Wp Kuala Lumpur,KUL
51000,Kuala Lumpur,Wp Kuala Lumpur,KUL
51100,Kuala Lumpur,Wp Kuala Lumpur,KUL
51200,Kuala Lumpur,Wp Kuala Lumpur,KUL
51300,Kuala Lumpur,Wp Kuala Lumpur,KUL
51640,Kuala Lumpur,Wp Kuala Lumpur,KUL
51700,Kuala Lumpur,Wp Kuala Lumpur,KUL
51800,Kuala Lumpur,Wp Kuala Lumpur,KUL
51900,Kuala Lumpur,Wp Kuala Lumpur,KUL
51990,Kuala Lumpur,Wp Kuala Lumpur,KUL
52000,Kuala Lumpur,Wp Kuala Lumpur,KUL
52100,Kuala Lumpur,Wp Kuala Lumpur,KUL
52109,Kuala Lumpur,Wp Kuala Lumpur,KUL
52200,Kuala Lumpur,Wp Kuala Lumpur,KUL
52210,Kuala Lumpur,Wp Kuala Lumpur,KUL
52220,Kuala Lumpur,Wp Kuala Lumpur,KUL
53000,Kuala Lumpur,Wp Kuala Lumpur,KUL
53100,Kuala Lumpur,Wp Kuala Lumpur,KUL
53200,Kuala Lumpur,Wp Kuala Lumpur,KUL
53500,Kuala Lumpur,Wp Kuala Lumpur,KUL
53700,Kuala Lumpur,Wp Kuala Lumpur,KUL
53800,Kuala Lumpur,Wp Kuala Lumpur,KUL
53990,Kuala Lumpur,Wp Kuala Lumpur,KUL
54000,Kuala Lumpur,Wp Kuala Lumpur,KUL
54050,Kuala Lumpur,Wp Kuala Lumpur,KUL
54100,Kuala Lumpur,Wp Kuala Lumpur,KUL
54200,Kuala Lumpur,Wp Kuala Lumpur,KUL
54540,Kuala Lumpur,Wp Kuala Lumpur,KUL
55000,Kuala Lumpur,Wp Kuala Lumpur,KUL
55100,Kuala Lumpur,Wp Kuala Lumpur,KUL
55188,Kuala Lumpur,Wp Kuala Lumpur,KUL
55200,Kuala Lumpur,Wp Kuala Lumpur,KUL
55220,Kuala Lumpur,Wp Kuala Lumpur,KUL
55300,Kuala Lumpur,Wp Kuala Lumpur,KUL
55330,Kuala Lumpur,Wp Kuala Lumpur,KUL
55700,Kuala Lumpur,Wp Kuala Lumpur,KUL
55710,Kuala Lumpur,Wp Kuala Lumpur,KUL
55720,Kuala Lumpur,Wp Kuala Lumpur,KUL
55900,Kuala Lumpur,Wp Kuala Lumpur,KUL
55902,Kuala Lumpur,Wp Kuala Lumpur,KUL
55904,Kuala Lumpur,Wp Kuala Lumpur,KUL
55906,Kuala Lumpur,Wp Kuala Lumpur,KUL
55908,Kuala Lumpur,Wp Kuala Lumpur,KUL
55910,Kuala Lumpur,Wp Kuala Lumpur,KUL
55912,Kuala Lumpur,Wp Kuala Lumpur,KUL
55914,Kuala Lumpur,Wp Kuala Lumpur,KUL
55916,Kuala Lumpur,Wp Kuala Lumpur,KUL
55918,Kuala Lumpur,Wp Kuala Lumpur,KUL
55920,Kuala Lumpur,Wp Kuala Lumpur,KUL
55922,Kuala Lumpur,Wp Kuala Lumpur,KUL
55924,Kuala Lumpur,Wp Kuala Lumpur,KUL
55926,Kuala Lumpur,Wp Kuala Lumpur,KUL
55928,Kuala Lumpur,Wp Kuala Lumpur,KUL
55930,Kuala Lumpur,Wp Kuala Lumpur,KUL
55932,Kuala Lumpur,Wp Kuala Lumpur,KUL
55934,Kuala Lumpur,Wp Kuala Lumpur,KUL
55990,Kuala Lumpur,Wp Kuala Lumpur,KUL
56000,Kuala Lumpur,Wp Kuala Lumpur,KUL
56100,Kuala Lumpur,Wp Kuala Lumpur,KUL
57000,Kuala Lumpur,Wp Kuala Lumpur,KUL
57100,Kuala Lumpur,Wp Kuala Lumpur,KUL
57200,Kuala Lumpur,Wp Kuala Lumpur,KUL
57700,Kuala Lumpur,Wp Kuala Lumpur,KUL
57990,Kuala Lumpur,Wp Kuala Lumpur,KUL
58000,Kuala Lumpur,Wp Kuala Lumpur,KUL
58100,Kuala Lumpur,Wp Kuala Lumpur,KUL
58200,Kuala Lumpur,Wp Kuala Lumpur,KUL
58209,Kuala Lumpur,Wp Kuala Lumpur,KUL
58700,Kuala Lumpur,Wp Kuala Lumpur,KUL
58990,Kuala Lumpur,Wp Kuala Lumpur,KUL
59000,Kuala Lumpur,Wp Kuala Lumpur,KUL
59001,Kuala Lumpur,Wp Kuala Lumpur,KUL
59100,Kuala Lumpur,Wp Kuala Lumpur,KUL
59200,Kuala Lumpur,Wp Kuala Lumpur,KUL
59206,Kuala Lumpur,Wp Kuala Lumpur,KUL
59700,Kuala Lumpur,Wp Kuala Lumpur,KUL
59800,Kuala Lumpur,Wp Kuala Lumpur,KUL
59990,Kuala Lumpur,Wp Kuala Lumpur,KUL
60000,Kuala Lumpur,Wp Kuala Lumpur,KUL
53300,Setapak,Wp Kuala Lumpur,KUL
87000,Labuan,Wp Labuan,LBN
87007,Labuan,Wp Labuan,LBN
87008,Labuan,Wp Labuan,LBN
87010,Labuan,Wp Labuan,LBN
87011,Labuan,Wp Labuan,LBN
87012,Labuan,Wp Labuan,LBN
87013,Labuan,Wp Labuan,LBN
87014,Labuan,Wp Labuan,LBN
87015,Labuan,Wp Labuan,LBN
87016,Labuan,Wp Labuan,LBN
87017,Labuan,Wp Labuan,LBN
87018,Labuan,Wp Labuan,LBN
87019,Labuan,Wp Labuan,LBN
87020,Labuan,Wp Labuan,LBN
87021,Labuan,Wp Labuan,LBN
87022,Labuan,Wp Labuan,LBN
87023,Labuan,Wp Labuan,LBN
87024,Labuan,Wp Labuan,LBN
87025,Labuan,Wp Labuan,LBN
87026,Labuan,Wp Labuan,LBN
87027,Labuan,Wp Labuan,LBN
87028,Labuan,Wp Labuan,LBN
87029,Labuan,Wp Labuan,LBN
87030,Labuan,Wp Labuan,LBN
87031,Labuan,Wp Labuan,LBN
87032,Labuan,Wp Labuan,LBN
87033,Labuan,Wp Labuan,LBN
62000,Putrajaya,Wp Putrajaya,PJY
62007,Putrajaya,Wp Putrajaya,PJY
62050,Putrajaya,Wp Putrajaya,PJY
62052,Putrajaya,Wp Putrajaya,PJY
62100,Putrajaya,Wp Putrajaya,PJY
62150,Putrajaya,Wp Putrajaya,PJY
62200,Putrajaya,Wp Putrajaya,PJY
62250,Putrajaya,Wp Putrajaya,PJY
62300,Putrajaya,Wp Putrajaya,PJY
62500,Putrajaya,Wp Putrajaya,PJY
62502,Putrajaya,Wp Putrajaya,PJY
62503,Putrajaya,Wp Putrajaya,PJY
62504,Putrajaya,Wp Putrajaya,PJY
62505,Putrajaya,Wp Putrajaya,PJY
62506,Putrajaya,Wp Putrajaya,PJY
62510,Putrajaya,Wp Putrajaya,PJY
62512,Putrajaya,Wp Putrajaya,PJY
62514,Putrajaya,Wp Putrajaya,PJY
62516,Putrajaya,Wp Putrajaya,PJY
62517,Putrajaya,Wp Putrajaya,PJY
62518,Putrajaya,Wp Putrajaya,PJY
62519,Putrajaya,Wp Putrajaya,PJY
62520,Putrajaya,Wp Putrajaya,PJY
62522,Putrajaya,Wp Putrajaya,PJY
62524,Putrajaya,Wp Putrajaya,PJY
62526,Putrajaya,Wp Putrajaya,PJY
62527,Putrajaya,Wp Putrajaya,PJY
62529,Putrajaya,Wp Putrajaya,PJY
62530,Putrajaya,Wp Putrajaya,PJY
62532,Putrajaya,Wp Putrajaya,PJY
62536,Putrajaya,Wp Putrajaya,PJY
62539,Putrajaya,Wp Putrajaya,PJY
62540,Putrajaya,Wp Putrajaya,PJY
62542,Putrajaya,Wp Putrajaya,PJY
62546,Putrajaya,Wp Putrajaya,PJY
62550,Putrajaya,Wp Putrajaya,PJY
62551,Putrajaya,Wp Putrajaya,PJY
62570,Putrajaya,Wp Putrajaya,PJY
62574,Putrajaya,Wp Putrajaya,PJY
62576,Putrajaya,Wp Putrajaya,PJY
62578,Putrajaya,Wp Putrajaya,PJY
62582,Putrajaya,Wp Putrajaya,PJY
62584,Putrajaya,Wp Putrajaya,PJY
62590,Putrajaya,Wp Putrajaya,PJY
62592,Putrajaya,Wp Putrajaya,PJY
62594,Putrajaya,Wp Putrajaya,PJY
62596,Putrajaya,Wp Putrajaya,PJY
62602,Putrajaya,Wp Putrajaya,PJY
62604,Putrajaya,Wp Putrajaya,PJY
62605,Putrajaya,Wp Putrajaya,PJY
62606,Putrajaya,Wp Putrajaya,PJY
62616,Putrajaya,Wp Putrajaya,PJY
62618,Putrajaya,Wp Putrajaya,PJY
62620,Putrajaya,Wp Putrajaya,PJY
62623,Putrajaya,Wp Putrajaya,PJY
62624,Putrajaya,Wp Putrajaya,PJY
62628,Putrajaya,Wp Putrajaya,PJY
62630,Putrajaya,Wp Putrajaya,PJY
62632,Putrajaya,Wp Putrajaya,PJY
62648,Putrajaya,Wp Putrajaya,PJY
62652,Putrajaya,Wp Putrajaya,PJY
62654,Putrajaya,Wp Putrajaya,PJY
62657,Putrajaya,Wp Putrajaya,PJY
62662,Putrajaya,Wp Putrajaya,PJY
62668,Putrajaya,Wp Putrajaya,PJY
62670,Putrajaya,Wp Putrajaya,PJY
62674,Putrajaya,Wp Putrajaya,PJY
62675,Putrajaya,Wp Putrajaya,PJY
62676,Putrajaya,Wp Putrajaya,PJY
62677,Putrajaya,Wp Putrajaya,PJY
62686,Putrajaya,Wp Putrajaya,PJY
62690,Putrajaya,Wp Putrajaya,PJY
62692,Putrajaya,Wp Putrajaya,PJY
62988,Putrajaya,Wp Putrajaya,PJY
